Postcode,Venue,Lat,Lon,Category
80331,Asamkirche (St. Johann Nepomuk),48.135053450258326,11.569746277160712,Church
80331,The High,48.13310102633997,11.572938966191533,Cocktail Bar
80331,Ringlers,48.134097,11.568302,Sandwich Place
80331,Marienplatz,48.13717504335439,11.57548638271061,Plaza
80331,Viktualienmarkt,48.13529613214196,11.576367768074439,Farmers Market
80331,landersdorfer & innerhofer - restaurant,48.13623678947609,11.56991682844317,German Restaurant
80331,Patolli,48.134208031658936,11.56811426452607,Coffee Shop
80331,Rindermarkt,48.13609857914366,11.573914758665321,Plaza
80331,Unter Deck,48.13499210443137,11.571283914108792,Bar
80331,Biergarten am Viktualienmarkt,48.1351936744121,11.576364766282014,Beer Garden
80331,St. Peter,48.13653033744336,11.575615102948722,Church
80331,Hirmer,48.138023229321696,11.572046157913082,Men's Store
80331,Fischbrunnen,48.13721054807242,11.57604728180553,Fountain
80331,Schmalznudel - Café Frischhut,48.13485770889897,11.57478317963125,Café
80331,St. Michael,48.13843576216555,11.570351323465532,Church
80331,Augustiner Klosterwirt,48.138649448058345,11.572527009723416,German Restaurant
80331,Venchi Gelato,48.134563,11.574657,Ice Cream Shop
80331,Kustermann,48.13624185951994,11.57489743951907,Department Store
80331,Chocolaterie Beluga,48.135749958121224,11.575775742530823,Café
80331,Sababa,48.13474777433371,11.577250105813546,Falafel Restaurant
80331,Weinhaus Neuner,48.137694048832856,11.568339898611708,German Restaurant
80331,Galeria Gourmet,48.13743238817685,11.573216827217955,Gourmet Shop
80331,mymuesli Laden,48.13535742016771,11.576714414351619,Organic Grocery
80331,Wirtshaus zum Straubinger,48.13376,11.574418,Bavarian Restaurant
80331,Oberpollinger,48.13883839775806,11.567608724407961,Department Store
80331,Fisch Witte,48.13499942195012,11.577124967645538,Fish Market
80331,Sendlinger Tor,48.133702710737936,11.567109876417671,Monument / Landmark
80331,ZWICKL Gastlichkeit am Viktualienmarkt,48.135239996292604,11.577249325837808,German Restaurant
80331,Alois Dallmayr,48.13855416294957,11.576749895722832,Gourmet Shop
80331,Kilians,48.13871994658476,11.574555957384717,Irish Pub
80331,Andechser am Dom,48.138302,11.573778,Bavarian Restaurant
80331,Bar Centrale,48.136821,11.579873,Café
80331,Manufactum,48.138775642303514,11.577317676699028,Department Store
80331,Atelier,48.137103126968285,11.563598876084447,Indie Movie Theater
80331,Mandarin Oriental Munich,48.137299197481546,11.580940335988998,Hotel
80331,Schneider Bräuhaus,48.136378,11.578446,Bavarian Restaurant
80331,Cortiina Hotel,48.136804,11.57945,Hotel
80331,Little London,48.13556217405231,11.58096107013997,Steakhouse
80331,Pusser's,48.1385001084952,11.58042637623221,Cocktail Bar
80331,Globetrotter,48.134611,11.581879,Sporting Goods Shop
80333,Königsplatz,48.14590269605444,11.565099067039846,Plaza
80333,NS-Dokumentationszentrum,48.14531493652586,11.56758427619934,History Museum
80333,Vorhoelzer Forum,48.14833025949782,11.567714192451895,Event Space
80333,Rooftop Bar TU München,48.148311,11.568174,Roof Deck
80333,Staatliches Museum Ägyptischer Kunst,48.14726961267973,11.568494201498734,History Museum
80333,Pinakothek der Moderne,48.14710902914007,11.572229666976487,Art Museum
80333,The Charles Hotel,48.142934597624325,11.562525629997253,Hotel
80333,Von&Zu,48.14788490114521,11.565157718365803,Café
80333,Cotidiano,48.14020195075453,11.570149077211648,Restaurant
80333,Städtische Galerie im Lenbachhaus,48.14676098325046,11.563528776168823,Art Museum
80333,Café im Vorhoelzer Forum,48.14841272862209,11.567786220958007,Café
80333,Ballabeni,48.14831238954939,11.574575340740491,Ice Cream Shop
80333,benko,48.1488,11.56564,Café
80333,L'Osteria,48.140232,11.567688,Trattoria/Osteria
80333,Lenbachs & Söhne,48.141773442809345,11.571239569426293,Bar
80333,Maximiliansplatz,48.141935896251276,11.57137155532837,Park
80333,Theresa Bar,48.147589683254914,11.575060946749227,Bar
80333,Wittelsbacher Platz,48.14307968132669,11.57599910195933,Plaza
80333,Rocca Riviera,48.14354415044174,11.57605100921803,French Restaurant
80333,Sophia's,48.142795,11.562438,Italian Restaurant
80333,Hotel Bayerischer Hof,48.14029494970563,11.573082503084743,Hotel
80333,The Italian Shot,48.14811439351411,11.575081465101965,Italian Restaurant
80333,Cafe Luitpold,48.14313591326277,11.574685226616356,Café
80333,MAELU,48.140983,11.576729,Café
80333,ARAN Fünf Höfe,48.1407145021652,11.576498919834604,Café
80333,Burrito Company,48.15017990331075,11.563608584254464,Burrito Place
80333,Volkstheater,48.14779895744014,11.560289874722967,Theater
80333,Joon,48.15094,11.565307,Café
80333,Frida,48.14969040247115,11.56480660345666,Pub
80333,Kaito,48.14959911595672,11.56087185986773,Sushi Restaurant
80333,Drunken Cow Bar & Grill,48.1496381442721,11.560806375261373,Steakhouse
80333,Bite Delite,48.13999643231038,11.57507175739173,Café
80333,Kunsthalle München,48.1399667000461,11.575919702004619,Art Museum
80333,LODENFREY München am Dom,48.13951472220955,11.574043332628872,Clothing Store
80333,Elly Seidl,48.13941018983618,11.575511915288066,Candy Store
80333,Fünf Höfe,48.14015749153649,11.575260843998763,Shopping Mall
80333,Antiquarium,48.14066812614426,11.578907704824815,Historic Site
80333,Louis Vuitton München Residenzpost,48.13921,11.57766,Boutique
80333,Residenz,48.14128433160972,11.57901091617532,Palace
80333,Grill & Grace,48.149778,11.559788,Steakhouse
80333,Nudo,48.14946314294317,11.577926117575426,Italian Restaurant
80333,Alter Simpl,48.15085905162649,11.576340320548328,German Restaurant
80335,Augustiner Biergarten,48.14339635620635,11.55163049697876,Beer Garden
80335,Augustiner-Keller,48.14328181182923,11.551845073699951,Bavarian Restaurant
80335,Ballabeni Icecream Werkstatt,48.145623,11.558332,Ice Cream Shop
80335,Condesa,48.139891,11.555623,Mexican Restaurant
80335,Clever Fit Mitte,48.14426438809337,11.558020301686614,Gym / Fitness Center
80335,Sofitel Munich Bayerpost,48.13924641337055,11.557234390440732,Hotel
80335,Cinema Filmtheater,48.148412633964504,11.553055601935696,Indie Movie Theater
80335,Circus Krone,48.14531493652586,11.55013918876648,Circus
80335,Shandiz,48.14644194793621,11.559034412291275,Middle Eastern Restaurant
80335,Publicis Sapient,48.143947024120465,11.549693379742463,Office
80335,Noppakao,48.143882636992885,11.559871305259119,Thai Restaurant
80335,Café Kosmos,48.142484,11.560045,Bar
80335,ISA.BAR,48.139247880443136,11.557481110211945,Hotel Bar
80335,25hours Hotel The Royal Bavarian,48.14003807009608,11.561210707142537,Hotel
80335,dean&david,48.14804771681972,11.55693389006663,Salad Place
80335,L'Osteria,48.140976551904735,11.559569835662842,Trattoria/Osteria
80335,Amorino,48.13984536165734,11.563062071800232,Ice Cream Shop
80335,Aloft Munich,48.139049862132566,11.559076309204102,Hotel
80335,Hofpfisterei,48.13987140149526,11.560995607437933,Bakery
80335,Karlsplatz (Stachus),48.13932987428986,11.565486788749695,Plaza
80335,idee. Creativmarkt,48.13928335475143,11.563983048437207,Arts & Crafts Store
80335,Gloria Palast,48.139619519262084,11.566593375981359,Indie Movie Theater
80336,Bar Gabányi,48.13274859722122,11.557836436398032,Cocktail Bar
80336,Hisham's International Grill,48.136396456714735,11.553882492721513,BBQ Joint
80336,Verdi Süpermarket,48.13640418469169,11.55783671890092,Supermarket
80336,Schiller Bräu,48.13669168324538,11.561022641367973,Bavarian Restaurant
80336,marc münchen,48.138032041185745,11.559863280380691,Hotel
80336,Hotel Cocoon Hauptbahnhof,48.13790219021385,11.557531187457915,Hotel
80336,Al Qaswaa,48.137500568315325,11.560519337654114,Middle Eastern Restaurant
80336,Deutsches Theater,48.13707674579377,11.562331882080468,Theater
80336,Kennedy's Irish Bar & Restaurant,48.13410057544268,11.567233142186316,Irish Pub
80337,gangundgaebe,48.127252,11.556946,Café
80337,Gelato Naturale,48.127825829011016,11.555996442061666,Ice Cream Shop
80337,Mimmo e Co.,48.127702406913166,11.556616995140281,Italian Restaurant
80337,Paulaner Bräuhaus,48.12639185872661,11.558568452608885,Bavarian Restaurant
80337,Frischeparadies,48.12341067744708,11.559287422880601,Gourmet Shop
80337,Bahnwärter Thiel,48.12349043451737,11.555771827697754,Nightclub
80337,coffeemamas,48.1276725189681,11.554465504740499,Café
80337,Atlantik Fisch & Feinkost,48.124285740779875,11.555258522746758,Seafood Restaurant
80337,vesperia,48.123991859531245,11.55467465507283,Bistro
80337,NamGiao 31,48.129168,11.562307,Vietnamese Restaurant
80337,Goldmarie,48.125501,11.551278,German Restaurant
80337,Lindwurmstüberl,48.128536295933685,11.556023474206546,German Restaurant
80337,Frisches Bier,48.12243678458445,11.558971293041841,Beer Bar
80337,Café Regenbogen,48.13000249492161,11.559379986781437,Restaurant
80337,Magnus Bauch,48.1219129219311,11.558253551607446,Butcher
80337,Iveria,48.125172697749555,11.549754437116697,Caucasian Restaurant
80337,Substanz,48.1247049051556,11.550555137362043,Nightclub
80337,DuDu,48.131074,11.566295,Vietnamese Restaurant
80337,Palau,48.13163352982786,11.566556580750653,Spanish Restaurant
80337,Andy's Krablergarten,48.13247478824163,11.56694253387582,Bavarian Restaurant
80337,Fitnessclub Sports & Health,48.12253150469941,11.544660068910659,Gym
80337,Stenz,48.12233076996082,11.544226576345975,Bistro
80339,Onofrio's Appetizing Store,48.13396,11.5405,Bagel Shop
80339,Gelateria Punto Gelato,48.1378326466042,11.544188940784183,Ice Cream Shop
80339,Cafe Colombo,48.132465,11.539401,Café
80339,Café Gollier,48.13567161431299,11.540854449018878,Bistro
80339,Rüen Thai Restaurant,48.134838637954616,11.535233873588226,Thai Restaurant
80339,Al Paladino,48.133613739779726,11.534433367255415,Italian Restaurant
80339,Millemiglia,48.1363843277559,11.537291570403058,Pizza Place
80339,Caffé Ristretto,48.1347142266268,11.541473839662306,Café
80339,Osteria Bianchi,48.13576054001573,11.540281816917377,Trattoria/Osteria
80339,Café Westend,48.132203,11.539321,Café
80339,Roomers Munich,48.139842046275845,11.540936514411442,Hotel
80339,Da Maria,48.13383427374235,11.536775863215663,Italian Restaurant
80339,Schwarzer Dackel,48.137894,11.543819,Bar
80339,Mimi,48.13770838894372,11.529897187204947,Asian Restaurant
80339,Bavaria,48.13068395023171,11.545944213867188,Outdoor Sculpture
80339,Café Lohner & Grobitsch,48.133153934045865,11.53845649609497,Café
80339,Augustiner Bräustuben,48.13940966666645,11.545401780138443,Bavarian Restaurant
80339,Deutsches Museum - Verkehrszentrum,48.132561,11.542629,Museum
80339,Royal India Restaurant,48.138261690272934,11.536046461940593,Indian Restaurant
80339,Wirtshaus am Bavariapark,48.132038287627275,11.543679436928237,German Restaurant
80339,Frau Li,48.13345500239049,11.543997765968316,Asian Restaurant
80339,Cubar,48.13474591941182,11.541531624366039,Cocktail Bar
80339,Ça Va,48.134755898340075,11.539260604089922,Café
80339,Café Marais,48.13775024529506,11.543928775026538,Café
80339,S.A.M. Sushi and Meat,48.13564,11.542322,Sushi Restaurant
80339,Banh Mi & Beer,48.13512,11.544018,Vietnamese Restaurant
80339,Madame Hu,48.13582960740682,11.543378936735587,Asian Restaurant
80339,Bavariapark,48.13109569391415,11.542897224426268,Park
80339,Paulanergarten,48.13094614577651,11.548148077491081,Beer Garden
80339,Stragula,48.13218617264768,11.535956340362448,Pub
80339,Kongress Bar,48.13221380840598,11.54380557903735,Bar
80339,La Fiera,48.1338425181744,11.535856733216214,Italian Restaurant
80339,Restaurant Opson,48.135031246748035,11.534332514615656,Modern Greek Restaurant
80339,IZAKAYA,48.139800992163615,11.540573980673816,Japanese Restaurant
80339,Alte Kongresshalle,48.13197287596809,11.54458701610565,Concert Hall
80339,Hilton Garden Inn Munich City West,48.14071711500381,11.535505158067952,Hotel
80339,Sheraton Club Lounge,48.13325462161015,11.532261727977106,Lounge
80339,Hotel Bavaria,48.1357605850091,11.546004127790033,Hotel
80339,Café Dupont,48.14015096951015,11.538255783406782,Wine Bar
80339,Beim Onkel,48.134522029965716,11.546374578785853,Doner Restaurant
80469,Jessas,48.12640480966247,11.569964703622226,Ice Cream Shop
80469,Tushita Teehaus,48.12983695446963,11.573066205898145,Tea Room
80469,Hoover & Floyd,48.129916037692,11.570584815734806,Café
80469,Man versus Machine Coffee Roasters,48.130983,11.57114,Coffee Shop
80469,Götterspeise,48.12843497389374,11.569678502885262,Café
80469,ALOF,48.129735,11.569742,Café
80469,Pescheria,48.1303539518951,11.572947517274667,Seafood Restaurant
80469,Hey Luigi!,48.128838,11.568269,Italian Restaurant
80469,Palast der Winde,48.13006473862167,11.570157088641098,Indian Restaurant
80469,Isarufer an der Reichenbachbrücke,48.12667017148517,11.576478481292725,Beach
80469,süßmund,48.12837359622403,11.5701535624806,Bistro
80469,Zephyr Bar,48.128963,11.576504,Cocktail Bar
80469,Aroma Kaffeebar,48.1303096484101,11.567336487677926,Café
80469,Trachtenvogl,48.12911213014508,11.575748305274013,Café
80469,Eismeer,48.130467650055856,11.567265205292323,Ice Cream Shop
80469,Pepenero,48.12973500317756,11.56996425707466,Italian Restaurant
80469,Bergwolf,48.13013121189494,11.573424607434438,Fast Food Restaurant
80469,Cooperativa,48.12761115114301,11.569193627523282,Restaurant
80469,The Italian Shot,48.129353,11.568362,Pizza Place
80469,Zum Wolf,48.13044236028304,11.567264081817255,Bar
80469,Café Maria,48.126360951036474,11.570037210448179,Café
80469,TRAM Café,48.131385702700214,11.568630337715147,Creperie
80469,Comic Company,48.12972995548597,11.573680856415903,Comic Shop
80469,Gärtnerplatz,48.131675848276025,11.576063540534292,Plaza
80469,Loretta,48.131738,11.567864,Café
80469,Café Crème,48.13002284980288,11.575795298660022,Café
80469,Cotidiano,48.1319099741037,11.575849037808501,Café
80469,Lezizel Manti,48.13246176882227,11.57494885111496,Manti Place
80469,Frühlingsanlagen,48.123595547195606,11.574799522052803,Park
80469,Kiosk an der Reichenbachbrücke,48.127843316903736,11.576132308314552,Food & Drink Shop
80469,Soda. Bücher und Magazine.,48.13328702311629,11.575602049295162,Bookstore
80469,Déjà Bu?,48.133000923225836,11.576824084909108,Wine Bar
80469,emilo DER LADEN,48.13274672200201,11.57772565162265,Coffee Shop
80469,The Drunken Dragon Bar,48.13201678164722,11.567409992585,Asian Restaurant
80469,Domori,48.12381105,11.56625292,Ice Cream Shop
80469,Il Piccolo Principe,48.12384723656044,11.565487977444414,Italian Restaurant
80469,Deutsche Eiche,48.132737720062856,11.576228804885833,Hotel
80469,SHRN,48.132434,11.577078,Board Shop
80469,Wir Machen Cupcakes,48.13382604172554,11.575904442407115,Cupcake Shop
80469,Jazzbar Vogler,48.13357594848553,11.577693513766253,Jazz Club
80469,Wortwahl - Salon für Buchkultur,48.13243203719532,11.576111620394983,Bookstore
80469,Walter & Benjamin,48.133342347356326,11.575409526583268,Wine Shop
80469,Jivamukti Yoga,48.132713062593794,11.578842409245226,Yoga Studio
80469,Königsquelle,48.13203729441726,11.58028531763387,German Restaurant
80469,Tian,48.134471281616335,11.575988337894875,Vegetarian / Vegan Restaurant
80469,Shane's Restaurant,48.1226292655637,11.565200713591448,Restaurant
80469,The Victorian House am Viktualienmarkt,48.13427,11.577563,English Restaurant
80469,Da Me Caffè,48.13141372062304,11.58138559290448,Bistro
80469,OOH BABY I LIKE IT RAW,48.134023,11.5804,Café
80469,Cafe Fräulein,48.1344872375267,11.578151713593467,Café
80538,Kleine Eisbachwelle,48.14792291715115,11.592358967249984,Surf Spot
80538,Biergarten am Chinesischen Turm,48.15250081420721,11.592346751349396,Beer Garden
80538,Fräulein Grüneis,48.14371477753796,11.589002711777194,Snack Place
80538,Eisbachwelle,48.143342429930065,11.587774530343157,Surf Spot
80538,Chinesischer Turm,48.15236223620112,11.592435899034157,Monument / Landmark
80538,Die Goldene Bar,48.144107,11.586004,Cocktail Bar
80538,Wasserfall im Englischen Garten,48.14501348523675,11.587464809417725,Waterfall
80538,Haus der Kunst,48.14394723081501,11.585845163911499,Art Museum
80538,Liebighof im Lehel,48.14164,11.5864696,German Restaurant
80538,SEITZ Trattoria,48.14141910465707,11.584901962983421,Trattoria/Osteria
80538,Patisserie Café Dukatz,48.1393750838356,11.586922844366706,Pastry Shop
80538,La Stanza,48.13982994122236,11.586983674726449,Italian Restaurant
80538,GOP Varieté-Theater,48.138204154853284,11.588022926158834,Performing Arts Venue
80538,Nage & Sauge,48.135805672780094,11.586705825376075,Italian Restaurant
80539,Hofgarten,48.143052722308155,11.579954624176025,Garden
80539,Odeonsplatz,48.14243330316378,11.577561989688498,Plaza
80539,Dinatale,48.150196,11.583001,Café
80539,Bayerische Staatsoper,48.139639167418856,11.578933024720754,Opera House
80539,Königin 43,48.15016904154305,11.584569426360446,Café
80539,Nationaltheater München,48.139599002217864,11.579207038303139,Opera House
80539,Geschwister-Scholl-Platz,48.15085029162982,11.581382577473928,Plaza
80539,Max-Joseph-Platz,48.13981660939763,11.577886082977775,Plaza
80539,Hotel Vier Jahreszeiten Kempinski,48.13891754964023,11.5817750364508,Hotel
80539,Residenztheater,48.14003,11.579444,Theater
80539,Eisbach,48.14697573919038,11.591128706932068,River
80539,Brenner,48.13955529524648,11.580923550636928,Steakhouse
80539,Havana Club,48.136060040587495,11.582937021264101,Cocktail Bar
80634,Arkadaş Kebaphaus,48.152179445458145,11.529083112053918,Kebab Restaurant
80634,Gusto,48.14841804692129,11.534249949106147,Soup Place
80634,Gorilla-Bar,48.148448525066385,11.531934051977828,Bar
80634,Restaurant Broeding,48.151016692145795,11.53462794127386,Austrian Restaurant
80634,Asia Feinkost,48.14990340963211,11.534270369652392,Asian Restaurant
80634,Sarcletti,48.1525781139175,11.534093508494447,Ice Cream Shop
80634,Neuhauser,48.15000939825503,11.535172252404857,Pizza Place
80634,Rotkreuzplatz,48.15285195388673,11.53351565271441,Plaza
80634,Sushi Sado,48.146706,11.533601,Sushi Restaurant
80634,Marita,48.14928710361614,11.53517749638982,Café
80634,Gasthaus Jagdschlössl,48.153152366284054,11.533591659941731,German Restaurant
80634,Feinkost al Forno,48.151182628265765,11.53334686081376,Italian Restaurant
80634,Goldene Rakete,48.15213,11.53449037,Fast Food Restaurant
80634,Milos,48.14891316040504,11.53426141455681,Greek Restaurant
80634,Taverne Kyklos,48.14787734621474,11.533551847079382,Taverna
80634,Hofpfisterei,48.15249483193595,11.534494376164423,Bakery
80634,Sappralott,48.148700696064395,11.53393394507515,German Restaurant
80634,La Tasca nueva,48.14652751817637,11.531238653930764,Spanish Restaurant
80634,Quán Cơm,48.15266365118513,11.531742591181402,Vietnamese Restaurant
80634,Yak & Yeti,48.14661415018868,11.533198594019094,Tibetan Restaurant
80634,Taverna Cyclades,48.15743110509183,11.534430500193714,Greek Restaurant
80634,Richel's,48.145177528388146,11.534742147777429,German Restaurant
80634,Ryan's Muddy Boot,48.15003032131677,11.535611350881933,Irish Pub
80634,Kieser Training,48.14959303205559,11.520673777083957,Gym / Fitness Center
80634,Pardi,48.155583690169166,11.534967054612736,Turkish Restaurant
80634,The Victorian House,48.154654238459194,11.535701718251573,English Restaurant
80634,Eiscafé Venezia,48.153003820555476,11.532695798110458,Ice Cream Shop
80634,Zum ewigen Licht,48.150072741893545,11.522255335140196,German Restaurant
80634,Platz der Freiheit,48.15552257250263,11.538514736280822,Plaza
80634,VolkArt,48.15520966472867,11.533805887246006,Spanish Restaurant
80634,Pizzazza,48.15502381067035,11.533078325883116,Pizza Place
80636,il Melograno,48.14950128315574,11.541638979285795,Italian Restaurant
80636,Leibspeis,48.15076380800095,11.541911129412844,German Restaurant
80636,Trattoria Bellini,48.15105587062783,11.540812096561407,Trattoria/Osteria
80636,Butter,48.14985261085338,11.54037300135068,Café
80636,Café Neuhausen,48.150363,11.538285,Café
80636,Genussmeisterei Neuhausen,48.149445,11.542665,Food & Drink Shop
80636,malzraum,48.156295,11.540502,German Restaurant
80636,dm-drogerie markt,48.14995013119901,11.544366367298153,Drugstore
80636,Novotel München City Arnulfpark,48.14562230510064,11.538782391218414,Hotel
80636,An An,48.148963,11.542872,Vietnamese Restaurant
80636,Tanpopo,48.1491314290656,11.54598955084444,Café
80636,Pfefferkorn,48.14899555270752,11.538893281544402,Steakhouse
80636,ELEMENTS,48.14337431016967,11.53650361291359,Gym
80636,Oanh,48.15014908850539,11.545292125043904,Vietnamese Restaurant
80636,Feinkost Grasso,48.14895118094016,11.545812797631969,Italian Restaurant
80636,Maxim Filmtheater,48.14973380507153,11.536773622980949,Indie Movie Theater
80636,ibis Muenchen City Arnulfpark,48.145479438544314,11.539880024246218,Hotel
80636,Il Trullo,48.15644072952028,11.538514149849908,Italian Restaurant
80636,basic,48.149842112659854,11.546943452398908,Organic Grocery
80636,Freiheizhalle,48.14374356728783,11.536679863929749,Music Venue
80636,Poseidon,48.158716947053684,11.545878746430503,Greek Restaurant
80636,Eurostars Grand Central Hotel,48.14392651659234,11.546483645521535,Hotel
80637,The Tribeca Café,48.16406,11.530733,Café
80637,Ruffini,48.158077780297525,11.535267004692436,Café
80637,Taxisgarten,48.16319034542308,11.532430315402221,Beer Garden
80637,Yee Chino,48.16301387016942,11.54266274877945,Sushi Restaurant
80637,Neuhauser Augustiner,48.15914592874744,11.540722081928518,German Restaurant
80637,Dantebad,48.16754597159136,11.531945292714127,Pool
80637,Osteria da Massimo,48.16932058037621,11.533053556311136,Italian Restaurant
80637,Trattoria Kurfürst Maximilian,48.16399241767345,11.528776749777101,Trattoria/Osteria
80637,Milch & Honig,48.161306,11.540063,Café
80637,VollCorner Biomarkt,48.159552827307046,11.543984534268454,Organic Grocery
80637,MS Weitblick - Casino Sapporobogen,48.16882479401793,11.537281279332445,Gastropub
80637,Kini's Kitchen,48.15963815294381,11.546890948979062,Restaurant
80638,Schlosspark Nymphenburg,48.156925112380684,11.497256755828857,Park
80638,Botanischer Garten,48.163574028200046,11.501443487978857,Botanical Garden
80638,Schloss Nymphenburg,48.15839616733234,11.503783322114032,Palace
80638,Museum Mensch und Natur,48.16013503233375,11.503787844550995,Science Museum
80638,Amalienburg,48.15600956606459,11.500316448873082,Palace
80638,Marstallmuseum,48.1567304334449,11.50477543681037,History Museum
80638,Taverna Kymata,48.165099663035505,11.511913635034704,Taverna
80638,Schlosswirtschaft Schwaige,48.15539087999787,11.505703536065528,German Restaurant
80638,Poseidon,48.16366903355736,11.507034113097387,Greek Restaurant
80638,Schlosscafé im Palmenhaus,48.159235810866804,11.499760812730527,Café
80638,REWE,48.16527268,11.51172012,Supermarket
80638,Theater Gut Nederling,48.1680118460898,11.51629014433341,Theater
80638,Große Kaskade,48.157542053238295,11.485767458507326,Fountain
80638,Guido@Weber,48.162164,11.509571,Steakhouse
80638,H Nederlinger Straße,48.16992081151277,11.510742902755737,Bus Stop
80639,Königlicher Hirschgarten,48.14974410551501,11.511319059656811,Beer Garden
80639,Hirschgarten,48.14862217154281,11.515860557556152,Park
80639,Alleecafé7,48.15257,11.508621,Café
80639,Mozzamo,48.154258991939614,11.50974093865762,Italian Restaurant
80639,Risotto Cucina Mediterranea,48.15309,11.507863,Italian Restaurant
80639,Nymphenburger Kanal,48.158786032690024,11.517201519170097,Canal
80639,Kleine Rose,48.154527481967705,11.50916021731086,Greek Restaurant
80639,Holiday Inn Express Munich City West,48.1446324,11.5195656,Hotel
80639,Backstage,48.14502600344709,11.521741334445116,Rock Club
80639,Hotel Laimer Hof,48.1534980631041,11.504788018160081,Hotel
80639,Romans,48.157321894755896,11.529259806303896,Italian Restaurant
80639,Hanami Sushi Addict,48.15408577918166,11.530398513581334,Sushi Restaurant
80639,Neuhauser Wohnküche,48.15636557960224,11.530733359468242,Restaurant
80639,Ristorante L'Acetaia,48.158200826713994,11.527263008739768,Italian Restaurant
80639,Backstage Halle,48.1447050589754,11.521579392012665,Music Venue
80639,REWE,48.14614681,11.51952469,Supermarket
80639,Backspielhaus,48.15824117248039,11.511381009940374,Bakery
80639,Studio One Tanz&Yoga,48.1466932459669,11.502750900786873,Yoga Studio
80639,Wirtshaus Kurgarten,48.14948133173564,11.508698928406222,German Restaurant
80639,Taj Krishna,48.156934,11.530329,Indian Restaurant
80639,La Brasserie,48.154088929922004,11.50668690559758,French Restaurant
80639,Canal Grande,48.15831158335046,11.516292341099959,Italian Restaurant
80639,Bäckerei Riedmair,48.15559238444343,11.53218864207971,Bakery
80639,ESV München e.V.,48.14680328713824,11.498371240232634,Athletics & Sports
80639,Primafila am Schlosspark,48.14689168084963,11.497124942651084,Italian Restaurant
80639,Fit-Star,48.14367314530964,11.498780022015408,Gymnastics Gym
80686,Sabatono,48.1350330880439,11.51166091824905,Caucasian Restaurant
80686,Gasthaus Gotthardgarten,48.13501,11.509138,German Restaurant
80686,B&B Hotel München City-West,48.133172263913075,11.524832546710968,Hotel
80686,dm-drogerie markt,48.13662804183636,11.503602742290695,Drugstore
80686,Telekom Shop,48.13706739629931,11.503331735702886,Mobile Phone Shop
80686,REWE Center,48.13588922,11.50332455,Supermarket
80686,Restaurant Athen,48.130095,11.517747,Greek Restaurant
80686,Beste Döner,48.139598061029965,11.502905713910407,Doner Restaurant
80686,SUBWAY,48.13769231792598,11.502920859883062,Sandwich Place
80686,my stolz - the burger boss,48.127144159456115,11.502747593824255,Burger Joint
80686,Eiscafé da Michele,48.135007,11.503248,Ice Cream Shop
80687,Zöttl Bäckerei und Cafe,48.13925729914745,11.511080983385707,Bakery
80687,Detterbeck,48.139643055187754,11.50049204023884,Pastry Shop
80687,Potlatsch,48.13982075529516,11.500278552719893,Greek Restaurant
80687,Asien Perle,48.13931124326134,11.510625671731088,Chinese Restaurant
80687,Neues Rex,48.14141388850507,11.492621345533347,Movie Theater
80687,Bistro No.2,48.1429069229565,11.503614693739092,Restaurant
80687,Laimers,48.14134420564991,11.492620830686409,Gastropub
80687,Umeshu Sushibar,48.137232999952275,11.523225170991532,Sushi Restaurant
80687,EDEKA Fürstenrieder 21,48.140073,11.503337,Supermarket
80687,Feinkost Med,48.14368098840054,11.497638777065086,Doner Restaurant
80687,Hit Markt,48.137262060081845,11.523374190583745,Supermarket
80687,Deutsche Bank,48.139300155569,11.50465542270183,Bank
80687,Fitness First Platinum Swim Club,48.1448533,11.49058,Gym / Fitness Center
80687,Willibaldplatz,48.140556,11.488658,Plaza
80687,Bäckerei Hoffmann,48.140892180815875,11.488937605353309,Bakery
80687,ALDI SÜD,48.144719772932,11.485833615422285,Supermarket
80687,McFIT,48.13925976318484,11.524564310748246,Gym / Fitness Center
80687,Mercedes-Benz Niederlassung,48.14502695315888,11.486487681884567,Auto Garage
80687,EDEKA Hammerer,48.14089751,11.51893469,Supermarket
80687,A&O München Laim,48.144056175302026,11.494661334321673,Hostel
80687,Lidl,48.14450189999999,11.4889277,Supermarket
80687,E xpress,48.1411445,11.4889526,Supermarket
80687,Rossmann,48.140516406984794,11.489189860740396,Drugstore
80687,Trattoria Lindengarten,48.13978857456278,11.495568489369962,Trattoria/Osteria
80687,A.T.U,48.14202538641416,11.516627669334412,Automotive Shop
80687,E xpress,48.139172,11.510409,Supermarket
80687,BAUHAUS,48.13932271,11.5246442,Hardware Store
80687,Rossmann,48.13721919195197,11.523423314654538,Drugstore
80689,Taverna (TAVERNA),48.13355,11.49785,Greek Restaurant
80689,Taverna Anemos,48.13981725414802,11.487349293179259,Greek Restaurant
80689,Troja im grünen Kranz,48.127609254669366,11.49963574235621,Greek Restaurant
80689,EDEKA Reschke,48.12994321,11.48660879,Supermarket
80689,Huiras,48.132918,11.502664,Gastropub
80689,Rossmann,48.129989940456,11.4867283872478,Drugstore
80689,Eiscafé GELATÓK,48.1257383560302,11.476141870523064,Ice Cream Shop
80689,EDEKA,48.12657,11.47638,Supermarket
80689,H Willibaldstraße,48.13001140818627,11.482168542545107,Bus Stop
80689,Bäckerei Zöttl,48.129882976074306,11.489012776116914,Bakery
80689,Dillinger,48.13502527092522,11.499340545838207,American Restaurant
80796,Bodeguita,48.1612,11.5698,Tapas Restaurant
80796,Tante Emma,48.16440813177304,11.574183690390782,Bistro
80796,New Saigon,48.161336,11.568877,Vietnamese Restaurant
80796,Biervana,48.1605050477003,11.573896679681138,Beer Store
80796,Lemar,48.161736586098094,11.574877062743548,Afghan Restaurant
80796,Elia,48.16307,11.57162,Greek Restaurant
80796,Schwabinger Wassermann,48.162745134442495,11.572784149719247,Bar
80796,DHABA,48.162666,11.57483,Indian Restaurant
80796,necado KAFFEELADEN,48.16047619551366,11.573227474953038,Coffee Shop
80796,Arts 'n' Boards,48.16141542659553,11.57479117976864,Restaurant
80796,TeamEscape München,48.160124199878354,11.566916110911599,Recreation Center
80796,Ö Eins,48.16267817316307,11.573285018917122,Austrian Restaurant
80796,Long Grain,48.16528190076732,11.573976983517595,Thai Restaurant
80796,Bayernpark,48.16548013959173,11.568097076311393,Park
80796,Standl 20,48.156844,11.574296,Coffee Shop
80796,H'Otello F'22 / München,48.16218981378075,11.572008233398883,Hotel
80796,Dompierre Boulangerie,48.159373,11.568909,Bakery
80796,Elisabethmarkt,48.15710543224556,11.574275214822634,Farmers Market
80796,Münchner Boulangerie,48.158759276812965,11.57474379174134,Bakery
80796,Casa Sarda Stand 13,48.156674,11.573774,Italian Restaurant
80797,Hotel Motel One München-Olympia Gate,48.16179819778733,11.557053852096484,Hotel
80797,Il Borgo,48.15761777777652,11.560623150467748,Italian Restaurant
80797,Georgios,48.165727644673574,11.564714143766105,Taverna
80797,Nordbad,48.16052579278763,11.563396952201892,Pool
80797,Chaos Computer Club,48.153617723362835,11.560833784220813,Arcade
80797,Bellevue,48.16077601669126,11.563718941588753,Mediterranean Restaurant
80797,Stadion an der Schleißheimer Straße,48.15398102017554,11.561073209273824,Sports Bar
80797,Viethaus,48.15460259102769,11.56078523397582,Vietnamese Restaurant
80797,Monopol-Kino,48.162608976205476,11.563782908581532,Movie Theater
80797,Maßmannpark,48.15270820886737,11.559416477791137,Park
80797,Lamingtons Bakery,48.155346,11.561664,Bakery
80797,Combinat 56,48.16362175755746,11.558419795865541,Coworking Space
80797,Munich Gym,48.15962191716294,11.556735273044774,Gym / Fitness Center
80797,mataji's kitchen,48.161835,11.563606,Indian Restaurant
80798,Josefina,48.154116611632254,11.566279591463324,Café
80798,Taverna Lakis,48.15468047176395,11.566709217079666,Taverna
80798,Bodega Dali,48.15601,11.56876,Spanish Restaurant
80798,Il Mulino,48.15427001738938,11.567889375645777,Italian Restaurant
80798,Takumi,48.153233,11.560949,Ramen Restaurant
80798,Ionion,48.15168271182972,11.564572995369087,Grilled Meat Restaurant
80798,Salon Irkutsk,48.15567831518925,11.570217544638737,Bar
80798,Görreshof,48.15617242768478,11.561936623190075,Bavarian Restaurant
80799,The Victorian House Brown's Tea Bar,48.14994274145202,11.575785499141919,Tea Room
80799,Gartensalon,48.1517790988081,11.577483650183003,Café
80799,Gegenüber,48.152607170668084,11.574288511751197,Café
80799,Aloha Poke,48.151635887351844,11.57682380014784,Poke Place
80799,Boulangerie Dompierre,48.15047968073459,11.575198535322926,Bakery
80799,Bagels & Muffins,48.1519358119813,11.573844777110887,Bagel Shop
80799,Konditorei Kaffee Schneller,48.14982910784462,11.578166351245983,Pastry Shop
80799,Donuts & Candies,48.15495483392071,11.575446474150139,Donut Shop
80799,Katopazzo & die Totem Bar,48.151512,11.578939,Bar
80799,ORANGE BOX,48.151111392766325,11.576557538871207,Restaurant
80799,Mary's Coffee Club,48.151751440483956,11.577777117483947,Breakfast Spot
80799,Morso,48.15471984892339,11.575472438953218,Café
80799,Gratitude Restaurant,48.150723,11.576171,Vegetarian / Vegan Restaurant
80799,Hans im Glück - Burgergrill,48.15220592968899,11.57714376269887,Burger Joint
80799,FOX,48.15157379179224,11.573571444161873,Bar
80799,Le Refuge,48.154512898530065,11.573830084728002,French Restaurant
80799,Lost Weekend,48.149109,11.579623,Café
80799,TH Café,48.155100645208464,11.576361929320239,Café
80799,Limoni Ristorante,48.14872839168797,11.577455644121622,Italian Restaurant
80799,Daddy Longlegs,48.149383,11.572296,Café
80799,Neue Pinakothek,48.149311,11.571069,Art Museum
80799,Nguyen,48.156289,11.570852,Vietnamese Restaurant
80801,Lorenzo Corno,48.15997203156093,11.579918688225247,Ice Cream Shop
80801,Kreta Grill,48.15857886929274,11.574863984772334,Cretan Restaurant
80801,Anh-Thu,48.156239143708945,11.575981459616393,Vietnamese Restaurant
80801,Cotidiano Schwabing,48.15965826635168,11.583110135483304,Breakfast Spot
80801,Kaisergarten,48.16105911757611,11.581346884427823,German Restaurant
80801,Caffè Conte,48.15851955381291,11.583149010081337,Café
80801,The Hutong Club,48.15781347934844,11.579226530301646,Asian Restaurant
80801,Cochinchina,48.16100304940134,11.582133902995716,Vietnamese Restaurant
80801,Gelato Bartu,48.16088601190847,11.58309636715156,Ice Cream Shop
80801,Kalypso,48.15732190932764,11.57144721866064,Greek Restaurant
80801,Trattoria da Pino,48.16028056312753,11.582075421259267,Trattoria/Osteria
80801,Elisabethplatz,48.15784143161095,11.574952922216022,Plaza
80801,Georgenhof,48.15474570959424,11.579067719549219,German Restaurant
80801,LAVIN'S Cafe,48.157983,11.578633,Breakfast Spot
80801,Hostarìa Rò e Bunì,48.16110753115949,11.577533690943111,Italian Restaurant
80801,Garbo Bar Pizzeria,48.161166861365075,11.575680961534916,Pizza Place
80801,La Tazza D'Oro,48.15983925832591,11.582580491040696,Italian Restaurant
80801,Reed,48.1596,11.583946,Café
80802,Call Soul,48.161455,11.592979,Bar
80802,Occam Deli,48.1612207426585,11.589208674003151,Deli / Bodega
80802,Osterwaldgarten,48.16182670985291,11.594265295717541,German Restaurant
80802,Weinbauer,48.16012676334611,11.586983238566836,German Restaurant
80802,Waldfee,48.16234328130469,11.589892399028907,Austrian Restaurant
80802,Condesa,48.16230548009375,11.587167964329156,Taco Place
80802,Kinderkunsthaus München,48.16066691492265,11.587829479638572,Public Art
80802,Seehaus im Englischen Garten,48.160578696399064,11.59831702709198,Beer Garden
80802,Münchner Freiheit,48.16190788147709,11.586448060500487,Plaza
80802,Sushi Bar,48.16364779318895,11.588363697114067,Sushi Restaurant
80802,Mun Mun,48.16324584562233,11.58742424778,Thai Restaurant
80802,Ksara,48.162442432919114,11.588323123943846,Lebanese Restaurant
80802,Riva Schwabing,48.16164208419982,11.58724856762704,Italian Restaurant
80802,Leopold Kinos,48.160767471148965,11.586627476894332,Movie Theater
80802,The Keg Bar,48.15808,11.58553,Bar
80802,Rationaltheater,48.162805656488764,11.58966135392397,Theater
80802,Ruff's Burger,48.16161828513586,11.589346599562205,Burger Joint
80802,i love leo,48.160949713373064,11.58625133360581,Frozen Yogurt Shop
80802,Café Reitschule,48.15539231197611,11.588669660922628,Café
80802,Distillers Bar von Munich Distillers,48.161384,11.589278,Bar
80802,Rennbahn,48.161319208825695,11.589092149419894,Bar
80802,Leo's Sports Club,48.155217464203986,11.583176842745006,Gym
80802,Piatsa,48.15874757809692,11.585115180419091,Greek Restaurant
80802,Alles Wurscht,48.158545458716766,11.58686542794563,BBQ Joint
80802,Trumpf oder Kritisch,48.16110112691462,11.589183247560868,Gastropub
80802,My Indigo,48.161977,11.58698,Asian Restaurant
80802,Al Pacino,48.163969,11.58619,Italian Restaurant
80802,The Potting Shed,48.162302536581436,11.589473242565,Bar
80802,Vereinsheim,48.16192835011988,11.589587667957899,Comedy Club
80802,Flying Tiger,48.157791708751525,11.584635574904661,Gift Shop
80802,Block House,48.155963966311,11.584022654393646,Steakhouse
80802,L'Osteria,48.155352720934694,11.583763050071797,Trattoria/Osteria
80802,Cucina Corleone,48.161842,11.59119,Italian Restaurant
80802,Carhartt WIP Store Munich,48.1619321542686,11.5864300998931,Clothing Store
80802,Brusko Grill Restaurant,48.1544950963825,11.583088597492976,Restaurant
80802,dean&david,48.15824032614686,11.584955154676646,Salad Place
80802,Ristorante Italy,48.165475663394375,11.586425033127728,Italian Restaurant
80803,NineOFive,48.162631,11.580865,Pizza Place
80803,Be Thai Style,48.16301012092025,11.579840194869801,Thai Restaurant
80803,Made in Portugal & Brasil,48.165613622070815,11.583843644265844,Grocery Store
80803,Brotraum,48.16212749966807,11.584787051294157,Bakery
80803,Blue Nile 2,48.16194315658608,11.57477752528573,Ethiopian Restaurant
80803,EDEKA Schlieker,48.16246443080468,11.57853841781616,Supermarket
80803,DHABA,48.161884,11.585158,Indian Restaurant
80803,delmocca Kaffeerösterei und Kuchenbar,48.1637781890103,11.582314102022131,Café
80803,Black Bean - The Coffee Company,48.162736,11.57691,Coffee Shop
80803,Seerose - Birreria e Trattoria,48.16071251093748,11.591466561404179,Trattoria/Osteria
80804,Café Ludwig,48.17745842226446,11.579566756617497,Bar
80804,Winterbiergarten Bamberger Haus,48.170647325557375,11.568190740111131,Gastropub
80804,Ohayou,48.167224,11.573723,Japanese Restaurant
80804,dm-drogerie markt,48.170637,11.586413,Drugstore
80804,Schwabinger Tor,48.17055394003215,11.586214981425014,Shopping Mall
80804,Bad Georgenschwaige,48.176335229560124,11.57141952173885,Pool
80805,body + soul Center Englischer Garten,48.178579914927234,11.602382089269007,Gym / Fitness Center
80805,Mini Hofbräuhaus,48.16699190039077,11.607774389891182,Beer Garden
80805,Ungererbad,48.17032472949788,11.592601346285193,Pool
80805,Pullman Munich,48.17252333277389,11.594340299257286,Hotel
80805,Englischer Garten Nordteil,48.180263626007566,11.61854379932361,Park
80805,Steigenberger Hotel München,48.17460806497836,11.590297613380036,Hotel
80805,Schwabinger Bauernmarkt,48.17285051453908,11.595351692696113,Farmers Market
80805,Munich Marriott Hotel,48.17474608630579,11.592464781978151,Hotel
80805,Kindl & Schwan,48.17610098923598,11.58694641393701,Café
80805,Tantris,48.16960490690133,11.588046682111964,Restaurant
80805,Hirschau,48.162134942305876,11.602437616666268,Bavarian Restaurant
80805,Champions Sportsbar,48.17443811732877,11.592925239469238,Sports Bar
80805,Müller Bäcker,48.17317904071188,11.59439493087694,Bakery
80805,MTTC Iphitos,48.18532026056017,11.615059671930771,Tennis Court
80805,Beacharena,48.186277049181385,11.61283075705237,Beach
80805,Deutsche Bank,48.17766863095377,11.601487522093311,Bank
80805,ibis München City Nord,48.175014859648456,11.598706032002807,Hotel
80807,Motel One Hotel Parkstadt Schwabing,48.178073,11.591879,Hotel
80807,Bäckerei Kistenpfennig,48.18740238201551,11.572662407379507,Bakery
80807,Rabiang Thai,48.18077667718725,11.571211407312065,Thai Restaurant
80807,Super 8 Munich City North,48.188623271445735,11.591363067673049,Hotel
80807,Peppino,48.187274956841826,11.572658007890087,Café
80807,Schustermann + Borenstein,48.18928503934699,11.585000410721852,Clothing Store
80807,Hans im Glück - Burgergrill,48.182240274888954,11.585036061840698,Burger Joint
80807,Möbelum Naturholzmöbel,48.184962,11.58578167,Furniture / Home Store
80807,Dolzer Masskonfektionäre,48.18340659622562,11.592057623194325,Clothing Store
80807,Motel One Lounge,48.178624,11.59122,Lounge
80807,BMW Motorrad Zentrum,48.18761746051667,11.57221451014055,Motorcycle Shop
80807,Hotel Königstein,48.18750295927506,11.573498418204467,Hotel
80807,Gaststätte Nord Ost 26,48.18102625430719,11.587096058814277,Gastropub
80807,Blücher,48.18184320397461,11.570273127189253,Gastropub
80807,Privat Bäckerei Wimmer,48.186156764429896,11.579792063486765,Bakery
80807,Luitpoldpark,48.17266837904245,11.570255756378174,Park
80807,Hallhuber Outlet,48.18812785622428,11.584739685058594,Outlet Store
80807,Innside München Parkstadt Schwabing,48.176988064701014,11.592626287453893,Hotel
80807,Restaurant Dionysos,48.186539129474475,11.572669742820898,Greek Restaurant
80807,REWE,48.18280692,11.59381219,Supermarket
80807,Esto Cafe Bar Lounge,48.18681588072766,11.572667824852084,Turkish Restaurant
80807,Star Inn Hotel München Schwabing,48.18478213403201,11.58816066315152,Hotel
80807,Bonjour Munich,48.17828,11.593589,Bistro
80807,Star Inn Hotel Premium,48.184728646125116,11.587971714662011,Hotel
80807,One Cloud Bar,48.178566,11.591215,Cocktail Bar
80807,Suite Novotel Parkstadt Schwabing,48.17971507944048,11.593408082498867,Hotel
80807,REWE,48.178344010913406,11.572122731332,Supermarket
80807,Wolfs-Burger,48.184465,11.571378,Burger Joint
80807,Bite Delite,48.18205135536673,11.597205704638785,Café
80807,Leonardi,48.18156765304559,11.596856896366436,Cafeteria
80807,La Casina,48.17916188094933,11.568668375602112,Italian Restaurant
80807,dm-drogerie markt,48.187829563111656,11.567693131282795,Drugstore
80807,Rossmann,48.18430432953258,11.572930878890231,Drugstore
80807,Bistro Lange,48.188304297689015,11.587167833287785,German Restaurant
80807,dm-drogerie markt,48.182736790253216,11.594165343188138,Drugstore
80807,Suki,48.1911585221541,11.572230122822848,Thai Restaurant
80807,Rossmann,48.1817174092435,11.5676122504791,Drugstore
80807,EDEKA,48.18617937504939,11.572584839622838,Supermarket
80807,Ararat Kebap,48.18737023789486,11.569643890212115,Doner Restaurant
80807,Daily,48.17618458258528,11.591780831931386,Restaurant
80807,Da Pippo,48.187435261593755,11.575259282372896,Italian Restaurant
80807,Moser Tracht,48.18808457,11.58171073,Clothing Store
80807,chicco di caffè,48.187479428316976,11.568683881643615,Café
80807,Coffee Fellows,48.18339876453055,11.594658970292729,Coffee Shop
80807,Parkstadt-Center,48.18257630485794,11.59471686786489,Shopping Mall
80807,Tonys Essbar,48.18080993275455,11.572888505279678,Cocktail Bar
80807,ibis München Parkstadt Schwabing,48.17963354184483,11.593344450649335,Hotel
80809,BMW Welt,48.177433342403766,11.556243896484375,Auto Dealership
80809,BMW Welt Premium Lounge,48.17704701051971,11.556506752967833,Lounge
80809,BMW Museum,48.17697546725873,11.559044122695923,Museum
80809,Rolls-Royce Motor Cars,48.17729744115179,11.556106790600165,Museum
80809,Olympiaturm,48.17446121973674,11.553811357427906,Scenic Lookout
80809,BMW i,48.17714820577878,11.556505979497686,Museum
80809,Olympiahalle,48.174847902942545,11.550216056263357,Concert Hall
80809,BMW Welt Shop,48.17744358262132,11.556086909084703,Gift Shop
80809,"""Nur einmal Leben"" bei Makis",48.183247972033946,11.563077487152915,Greek Restaurant
80809,Olympiastadion,48.173305334373744,11.54659520216967,Stadium
80809,Zeltdachtour Olympiastadion,48.173871129793454,11.547861121132792,General Entertainment
80809,Leoli Restaurant,48.17845,11.564588,Vietnamese Restaurant
80809,Olympia-Schwimmhalle,48.17354127332782,11.551566123962402,Pool
80809,EssZimmer,48.17716260183826,11.556634234346822,French Restaurant
80809,SoccaFive Arena Olympiapark,48.17490396845168,11.555968374072295,Soccer Field
80809,Olympiaberg,48.169868737321664,11.551617662978678,Hill
80809,Olympia-Eisstadion,48.174727911089235,11.557191502483724,Hockey Arena
80809,Olympiapark,48.169004922955274,11.550407409667969,Park
80809,Synantisis,48.179631622971584,11.570367269017229,Greek Restaurant
80809,Bavarie by Käfer,48.17716297449768,11.556532746134376,Bistro
80809,H2 Hotel München Olympiapark,48.1869282,11.5457316,Hotel
80809,Restaurant 181,48.174475115655575,11.553754914411776,Restaurant
80809,Olympia Alm,48.171098254715716,11.554230632327016,Beer Garden
80809,Leonardo Royal Hotel Munich,48.18696893649017,11.543428729221484,Hotel
80809,Kleine Olympiahalle,48.17470033949481,11.552510261535645,Event Space
80809,Die Bierstube,48.17998280527042,11.55303331050681,Bar
80809,Kino am Olympiasee,48.173026499621606,11.552591674343443,Indie Movie Theater
80809,Pizza Hut,48.17575321003556,11.559462517626006,Pizza Place
80809,BMW Museum Shop,48.17681449455656,11.55861496925354,Gift Shop
80809,EDEKA,48.1818805,11.5530651,Supermarket
80809,Korfu Bistro,48.17220912272913,11.562439427470638,Greek Restaurant
80809,Hong Kong City,48.180496598784345,11.55255044281265,Asian Restaurant
80809,Lounge „Leo90“,48.18701152580237,11.543193617792658,Hotel Bar
80809,VIP Döner,48.18605888475979,11.56247601944447,Doner Restaurant
80809,Zum Brunnergarten,48.17514883803567,11.570129280222542,Beer Garden
80809,Restaurant am Olympiasee,48.17422129091728,11.55460843617766,German Restaurant
80809,Deutsche Bank,48.186234902153856,11.562749571853828,Bank
80933,REWE,48.21297836,11.56367731,Supermarket
80933,dm-drogerie markt,48.21277033933314,11.563326279762236,Drugstore
80933,Aral,48.21256715,11.560415,Gas Station
80933,EDEKA Melic,48.21394331,11.55700589,Supermarket
80933,Lidl,48.20959062540775,11.55367836356163,Supermarket
80933,Netto Filiale,48.22003394,11.55778572,Supermarket
80935,Zimt & Koriander,48.19589472388751,11.546043926231285,Café
80935,Bäckerei Seidl Konditorei,48.20428966617713,11.558815429678216,Bakery
80935,Restaurant Poseidon,48.20613825355213,11.564228478704365,Greek Restaurant
80935,Rossmann,48.2073528656783,11.5526895069923,Drugstore
80935,Wienerwald,48.207656778637975,11.563877152505611,Fried Chicken Joint
80935,H Irisstraße,48.19527838613495,11.544999098064856,Bus Stop
80935,EDEKA,48.2041365490503,11.563635245420917,Supermarket
80937,H&M,48.21275430476284,11.563687920515806,Clothing Store
80937,Ziegelhaus,48.20047422658882,11.573837649664853,Mexican Restaurant
80937,Wirtshaus am Hart,48.19642919267259,11.576490521144743,German Restaurant
80937,Netto Filiale,48.20949778,11.56710202,Supermarket
80937,Orterer Getränkemarkt,48.20436704268369,11.56481833672361,Food & Drink Shop
80939,DAV Kletter- und Boulderzentrum München-Nord,48.20677391552404,11.617842697767426,Rock Climbing Spot
80939,Feinkost Spina,48.19849320362933,11.60399106442845,Food & Drink Shop
80939,Südkurve,48.21806777378755,11.624908447265625,Soccer Stadium
80939,Allianz Arena,48.218889855624944,11.624661684036255,Soccer Stadium
80939,FC Bayern München Megastore,48.21868205282129,11.625979422938673,Sporting Goods Shop
80939,Allianz Arena Erlebniswelt,48.21974051771562,11.62529468536377,Museum
80939,Allianz Arena CL Club,48.218798755006475,11.624028222153697,Lounge
80939,VIP-Lounge,48.218739737318096,11.623620986938477,Lounge
80939,Telekom Lounge,48.21981200128113,11.624350547790527,Lounge
80939,Osteria Anni 50,48.207234,11.594647,Trattoria/Osteria
80939,Arena Bistro,48.217902528675054,11.625694069551464,Bistro
80939,Ilios,48.18914123171185,11.61398923899146,Greek Restaurant
80939,Business Club,48.21859676709279,11.623878479003904,Lounge
80939,Paulaner-Garten,48.21975947755901,11.624501261796885,Beer Garden
80939,Fressnapf XXL,48.1916986,11.5973285,Pet Store
80939,Arena Treff,48.20449599656885,11.6151095406206,Pub
80939,China Restaurant Bonsai,48.191345,11.620655,Chinese Restaurant
80939,Kesselhaus,48.19526343889353,11.608630153785933,Concert Hall
80939,Paulaner Fan Treff,48.2177880610267,11.624741531621714,Sports Bar
80939,Mykonos,48.20248861530313,11.611905097961426,Greek Restaurant
80939,Gourmet Tempel,48.19263766259039,11.598289243440863,Asian Restaurant
80939,REWE,48.20417469,11.59955411,Supermarket
80939,Poseidon,48.20130120095953,11.606571069165264,Greek Restaurant
80939,METRO Cash & Carry,48.1943146328833,11.600253582000732,Big Box Store
80939,"Toys""R""Us",48.19454836353631,11.59827458935914,Toy / Game Store
80939,Zenith - Die Kulturhalle,48.19469368277503,11.607913970947266,Concert Hall
80939,McDonald's,48.188537764604966,11.613874763828655,Fast Food Restaurant
80939,EDEKA,48.20205,11.60662,Supermarket
80939,U Fröttmaning,48.21128998778654,11.616718879431527,Metro Station
80939,H Keilberthstraße,48.20520832847289,11.599306575994731,Bus Stop
80939,Gasthaus zum Maibaum,48.19110917185037,11.61256224359397,German Restaurant
80939,real,48.19486946,11.59771993,Big Box Store
80939,Imbiss-Stadl,48.18955839120175,11.61506474018097,Fast Food Restaurant
80939,Club Nr. 12 Stand,48.21765129428806,11.625227021910677,Sports Club
80939,Lufthansa Lounge,48.21874968962117,11.616264592318155,Soccer Stadium
80939,Spielertunnel,48.2186110641333,11.62402868270874,Tunnel
80939,Locker Room @ Bayern Munich,48.21875328567062,11.624553399727176,Gym
80939,Della Terra Pizza & Antipasti,48.19436745067779,11.597291719049224,Mediterranean Restaurant
80939,Davidoff Lounge,48.21926872368004,11.625702381134033,Lounge
80939,Hacker Pschorr Fan-Treff,48.21965141815577,11.624361831426107,Bar
80992,body + soul Center München Nord,48.1783696590703,11.537157440229057,Gym / Fitness Center
80992,Alter Wirt Moosach,48.181014040905026,11.512222185157,German Restaurant
80992,Griechische Taverne - Zur Gartenlaube,48.170561378295034,11.529907953171925,Taverna
80992,Harry's Home Hotels,48.17937375574979,11.5057406939927,Hotel
80992,Kaufland,48.17845565628767,11.505288458435283,Supermarket
80992,Ihle,48.179233392209795,11.506020191226046,Bakery
80992,The Tent,48.16789315857391,11.502205397997002,Hostel
80992,Dönertier,48.17778981022412,11.531025805394108,Doner Restaurant
80992,Osteria Il Gambero,48.17202941298514,11.508332487555071,Trattoria/Osteria
80992,KFC,48.17847981040494,11.529523952584048,Fried Chicken Joint
80992,Osteria da Mimmo,48.181693,11.516722,Trattoria/Osteria
80992,Pils Corner,48.18201125914964,11.510289809321193,Food
80992,REWE,48.17741567,11.52130203,Supermarket
80992,dm-drogerie markt,48.178643,11.505319,Drugstore
80992,Grüner Frosch,48.1748135147761,11.528896182856226,Asian Restaurant
80992,Leto Motel,48.1800820003166,11.50665787742306,Motel
80992,dm-drogerie markt,48.182409,11.530893,Drugstore
80992,E xpress,48.18039834267968,11.512134432759922,Supermarket
80992,Rossmann,48.180804060722565,11.512003615110235,Drugstore
80992,Lidl,48.17292959944963,11.529230207468117,Supermarket
80992,EDEKA,48.18242172,11.53095737,Supermarket
80992,Wimmer,48.18013305267421,11.50691045501688,Bakery
80992,SUBWAY,48.18029261043601,11.507095777804732,Sandwich Place
80992,Leonardo Hotel Munich City North,48.18051782254887,11.512223111605659,Hotel
80992,Bäckerei Wimmer,48.18180537868651,11.522381903218637,Bakery
80992,Café Borstei,48.17063056432943,11.534003547006447,German Restaurant
80992,Galeria Karstadt Kaufhof,48.1832241,11.5318522,Department Store
80992,Bürgers,48.18113958009679,11.509952865916805,Gastropub
80992,Lidl,48.1815459,11.5346082,Supermarket
80992,WaffelWerk-München,48.181111,11.512931,Coffee Shop
80993,Fruchtwerk,48.1835467165847,11.532726270828416,Juice Bar
80993,JustMusic,48.18500045887281,11.531129671086482,Music Store
80993,Dehner,48.19238559597119,11.50066461188822,Garden Center
80993,Apple OEZ,48.1830587,11.5330604,Electronics Store
80993,Belmondo,48.183389835000675,11.536909387154235,Italian Restaurant
80993,Soccerworld,48.189841231174896,11.505569302406023,Soccer Field
80993,REWE CITY,48.18638080541071,11.520998825503066,Supermarket
80993,Conrad Electronic,48.18502026342925,11.531819932090666,Electronics Store
80993,Olympia-Einkaufszentrum (OEZ),48.18351093077725,11.532755299033047,Shopping Mall
80993,EDEKA,48.1832395,11.5070577,Supermarket
80993,Cocos,48.18364727343106,11.535333830720354,Asian Restaurant
80993,Georgios im Olympia,48.18339075008799,11.537220840686102,Greek Restaurant
80993,NORDSEE,48.1835003140258,11.535049949634196,Seafood Restaurant
80993,McDonald's,48.18396570974221,11.531209931016264,Fast Food Restaurant
80993,Dunkin',48.183121,11.532822,Donut Shop
80993,C&A,48.18365771506691,11.535620886900292,Clothing Store
80993,Telekom Shop,48.183581,11.535491,Mobile Phone Shop
80993,EDEKA center,48.183740486257264,11.532772694769978,Supermarket
80993,Zara,48.1835182939129,11.533880734998187,Clothing Store
80993,Deutsche Bank,48.18345688149282,11.53388500213623,Bank
80993,Kaffee Rischart,48.18364537864507,11.534152618655822,Café
80993,ALDI SÜD,48.188387430791224,11.503046183930763,Supermarket
80993,dm-drogerie markt,48.18395144778981,11.532041626983641,Drugstore
80993,Hugendubel,48.1833117737754,11.536630841166277,Bookstore
80993,Oliviva,48.18356745446826,11.534273428755906,Falafel Restaurant
80993,Galeria Karstadt Kaufhof,48.183546226109165,11.536391074694897,Department Store
80993,BackWerk,48.18190078726501,11.535110670232276,Bakery
80993,Kaimug,48.18314202016377,11.532831037590247,Thai Restaurant
80993,Fressnapf,48.191569687566535,11.501972952849759,Pet Store
80993,Sani Plus,48.18351739049618,11.534232594666271,Pharmacy
80993,Gelateria Ti amo,48.18361331584516,11.533747207041557,Ice Cream Shop
80993,Ihle Landbäckerei,48.18328642327347,11.507477357992979,Bakery
80993,Plastiras,48.18601121009368,11.50406876711883,Greek Restaurant
80995,Fasaneriesee,48.202415716117144,11.527075055740205,Lake
80995,REWE,48.21352739,11.54073164,Supermarket
80995,El Greco,48.21471831922394,11.534797912770678,Greek Restaurant
80995,Feldmochinger Hof,48.21439716754098,11.528587806793842,German Restaurant
80995,Rattlesnake Saloon,48.19918813528391,11.511283768015101,American Restaurant
80995,H Grashofstraße,48.21700798359328,11.52903288602829,Bus Stop
80995,H Josef-Frankl-Straße,48.21489012465026,11.530714631080627,Bus Stop
80995,H Am Blütenanger,48.20176638242123,11.506447345018387,Bus Stop
80995,Cellino,48.21389842011126,11.540343938425814,Ice Cream Shop
80995,H Feldmoching Bahnhof,48.213679561291,11.54052569595077,Bus Stop
80995,Rackl's Backstub'n,48.213857525435756,11.540571568402436,Bakery
80997,Harem - The art of turkish cuisine,48.1797424336464,11.485617533867048,Turkish Restaurant
80997,Corretto,48.1766000717842,11.4893988246648,Italian Restaurant
80997,NORMA,48.183487555056686,11.478840154587147,Supermarket
80997,EDEKA,48.18174069,11.47610792,Supermarket
80997,toom Baumarkt,48.17839197313885,11.496699054436656,Hardware Store
80997,A.J.'S Fitness,48.1787,11.49685,Gym / Fitness Center
80997,REWE,48.17835,11.4972,Supermarket
80997,Rackls Backstubn,48.17974,11.48964,Bakery
80997,H Dillinger Straße,48.18194821488442,11.495666559657034,Bus Stop
80997,H Waldhornstraße,48.179409986027224,11.490009728010685,Bus Stop
80997,H Zaunerstraße,48.1781058391094,11.48094892501831,Bus Stop
80997,H Untermenzinger Straße,48.1781201474541,11.494810581207275,Bus Stop
80997,Sultanim Imbiss,48.17767796675021,11.496689213040021,Doner Restaurant
80997,Hotel München Moosbichl,48.18125,11.504000000000019,Hotel
80997,TSV Moosach-Hartmannshofen,48.174449480200884,11.492371433215325,Athletics & Sports
80999,Bäckerei Schuhmair,48.19717489464528,11.459015564985368,Bakery
80999,Würmtalhof,48.18883411061443,11.460680179970256,German Restaurant
80999,Trattoria Olive,48.18990470844716,11.466970100514718,Trattoria/Osteria
80999,Sport Bittl,48.191447076635825,11.466552989530065,Sporting Goods Shop
80999,Inselmühle,48.17627861905496,11.461652022106666,Beer Garden
80999,Zur Allacher Mühle,48.19841133409175,11.457868837969725,Bavarian Restaurant
80999,dm-drogerie markt,48.1941177124669,11.465639900656356,Drugstore
80999,Gasthaus zur Schießstätte,48.19560074494681,11.456130122824106,Bavarian Restaurant
80999,Rossmann,48.19330073453552,11.466388332819333,Drugstore
80999,Lidl,48.19446839874346,11.465456485748291,Supermarket
80999,Vino's,48.1812157703097,11.461619630122703,Italian Restaurant
80999,Hotel Lutter,48.19049480500429,11.459441685873253,Hotel
80999,REWE Getränkemarkt,48.1938988,11.4660305,Food & Drink Shop
80999,ALDI SÜD,48.19285250143324,11.46631490147869,Supermarket
80999,H Allach Bahnhof,48.18970393885174,11.466611941031458,Bus Stop
80999,Au Beau Moulin,48.17719203109215,11.461841545814094,Breakfast Spot
80999,SV Untermenzing (Sportplatz),48.175860790950864,11.465539992886061,Soccer Field
80999,Papa Franco,48.17586270862288,11.46561060349072,Gastropub
81241,Pasinger Stadtpark,48.13749813826126,11.453204031421564,Park
81241,Sweet Monkeys‘,48.137667,11.457783,Ice Cream Shop
81241,Prinzregent-Garten,48.14062944249686,11.468779152582709,German Restaurant
81241,Schweizer Hof,48.144038264664104,11.458141253157931,German Restaurant
81241,Lemontrees II,48.14542617385992,11.459461024302133,Thai Restaurant
81241,Westbad,48.141229977535986,11.47353404540714,Pool
81241,Pasinger Viktualienmarkt,48.14741314007029,11.461742239514992,Farmers Market
81241,HIT,48.14749712050611,11.463620716894239,Supermarket
81241,thai Streetkitchen,48.149513,11.460341,Asian Restaurant
81241,Pasing Arcaden,48.148119395685995,11.463187697235933,Shopping Mall
81241,Goldene Gans,48.14318676761611,11.457763733870339,German Restaurant
81241,Nihao,48.14872274491318,11.460536701305411,Chinese Restaurant
81241,Viet Village,48.145236752316336,11.461315084870114,Vietnamese Restaurant
81241,Aran Brotgenuss & Kaffeekult,48.147574280142855,11.463684886044556,Café
81241,La Ruota,48.14538839369894,11.474882967214299,Pizza Place
81241,Alnatura,48.14640288365713,11.464169572054557,Organic Grocery
81241,FIT STAR Fitnessstudio München-Pasing,48.14994147601866,11.459105014801025,Gym / Fitness Center
81241,Louis Motorrad,48.145689328135425,11.466977510498374,Automotive Shop
81241,Taverna Kypros,48.14507379065398,11.459973576723572,Taverna
81241,Genusswerk,48.14790894728631,11.464153054652119,Coffee Shop
81241,dm-drogerie markt,48.1488779,11.4624219,Drugstore
81241,Five Guys,48.1477482,11.4633195,Burger Joint
81241,Brioche Doree,48.14850163858922,11.462664316487059,Café
81241,das Meisterstück,48.14995341858729,11.457652847066306,Theme Restaurant
81241,Eis Café Portofino,48.14771,11.46039,Ice Cream Shop
81241,Nespresso Boutique,48.147492250348996,11.46355562187867,Coffee Shop
81241,dm-drogerie markt,48.14631331382972,11.461074402446684,Drugstore
81241,Food Court,48.147541179698834,11.463631745559375,Food Court
81241,Starbucks,48.14896,11.462096,Coffee Shop
81241,Pommes Freunde,48.14893290667292,11.461507148022662,Fast Food Restaurant
81241,Vapiano,48.14926168810389,11.460307263009177,Italian Restaurant
81241,Fitness First Women Club,48.146988619853516,11.453602864144521,Gym / Fitness Center
81241,Media Markt,48.1470782,11.4633065,Electronics Store
81241,E xpress,48.14013399,11.45634393,Supermarket
81241,Restaurant Trattoria Da Peppo,48.146299271214275,11.463260034918495,Italian Restaurant
81241,Rossmann,48.14941987598983,11.459360768716367,Drugstore
81241,SUBWAY,48.14853670740377,11.461170509327037,Sandwich Place
81241,LEGO Store,48.14860145932451,11.462524147694737,Toy / Game Store
81241,McDonald's,48.149097079910796,11.460718601952989,Fast Food Restaurant
81241,Hotel Stadt Pasing,48.13690607667566,11.461362236277488,Hotel
81241,Bäckerei Keller,48.142651813186006,11.461400985717773,Bakery
81241,H Am Knie,48.14520308096656,11.47150956094265,Tram Station
81241,Erdgarten Biomarkt,48.14539431093666,11.458858155673385,Organic Grocery
81241,Baracuda Thai Box Club,48.14858179489001,11.443678661021952,Martial Arts Dojo
81243,REWE,48.1496781,11.4435252,Supermarket
81243,dm-drogerie markt,48.148001922231686,11.443955427892888,Drugstore
81243,METRO Cash & Carry,48.13965921403839,11.43350601196289,Big Box Store
81243,Bäckerei Reicherzer,48.15389,11.41836,Bakery
81243,Rossmann,48.15005362440404,11.444415991098163,Drugstore
81243,Kölle-Zoo,48.149982904876005,11.442785924115157,Pet Store
81243,Da Ugo,48.14159028525639,11.447081717003579,Italian Restaurant
81243,Lidl,48.14739451068862,11.443455666303635,Supermarket
81243,OBI,48.14171753959912,11.431231498718262,Hardware Store
81243,Seibel's Park-Hotel,48.14171925499695,11.448989348861275,Hotel
81243,H Ravensburger Ring,48.15042244907371,11.436665654182434,Bus Stop
81243,REWE Getränkemarkt,48.15048369,11.44479673,Supermarket
81243,Bayerisches Schnitzel- & Hendlhaus,48.14794,11.42166,Schnitzel Restaurant
81243,ALDI SÜD,48.1498277580913,11.443668008710205,Supermarket
81243,H Limesstraße,48.154427838076614,11.417796451778676,Bus Stop
81245,Hotel Neuner,48.16495496916197,11.453395496938956,Hotel
81245,Jagdschloss,48.155184658778445,11.452805374921283,German Restaurant
81245,Speisemeisterei - La Trattoria,48.156169132554375,11.461103763499443,Trattoria/Osteria
81245,EDEKA Höltkemeyer,48.1610832355466,11.44477128982544,Supermarket
81245,Burenwirt,48.15774255824549,11.415243825099468,German Restaurant
81245,Hotel Grünwald Garni,48.160182610293646,11.414902704260362,Hotel
81245,Rackls Backstubn,48.16050426205531,11.414555088075174,Bakery
81245,Lidl,48.16079697280949,11.424220204353333,Supermarket
81245,REWE,48.1618,11.41308,Supermarket
81245,S Langwied,48.163051248621194,11.432454586029053,Light Rail Station
81245,H Langwied Bahnhof,48.163003941008775,11.432165974518501,Bus Stop
81245,Backstube Wünsche,48.16008797969374,11.445917910013097,Bakery
81245,H Polkostraße,48.16008437618851,11.445913197800953,Bus Stop
81245,H Schloss Blutenburg,48.16412467847455,11.45498514175415,Bus Stop
81247,Sidhartha,48.16604225225985,11.458586703186517,Indian Restaurant
81247,Taverna Naxos,48.164144109462995,11.47935311715573,Taverna
81247,Schloss Blutenburg,48.16341896777274,11.45732798064822,Castle
81247,Wirtshaus Zum grünen Baum,48.16412929351051,11.47605842329502,Beer Garden
81247,basic,48.164917,11.490585,Organic Grocery
81247,Boutique Hotel Amalienburg,48.16408112312477,11.487629889790378,Hotel
81247,Schlosschänke Blutenburg,48.1630785939207,11.457244143453547,German Restaurant
81247,Rossmann,48.16453083925683,11.470029207731468,Drugstore
81247,EDEKA,48.16448915,11.47186353,Supermarket
81247,Zum Alten Wirt,48.16877823195569,11.457850564860582,German Restaurant
81247,Der Weichandhof,48.16724988364488,11.458095619609669,German Restaurant
81247,Aumüller,48.16465589461731,11.46516644133514,Bakery
81247,Hotel Schleuse,48.16616988020884,11.458610663255497,Hotel
81247,Campingplatz Obermenzing,48.17433479219536,11.446407600579132,Campground
81247,H Amalienburgstraße,48.16577234959388,11.493162363767624,Bus Stop
81249,Deutsche Eiche,48.17832294907342,11.407137231074628,German Restaurant
81249,Apotheke am Weiher,48.176583,11.406941,Pharmacy
81249,S Lochhausen,48.17629161043991,11.408203658462547,Light Rail Station
81249,H Lochhausen Bahnhof,48.17685778105847,11.407639887682853,Bus Stop
81369,Irodion,48.11107899795272,11.526051416423579,Greek Restaurant
81369,dm-drogerie markt,48.11612346506913,11.532453000000032,Drugstore
81369,Bäckerei Zöttl,48.1166007106465,11.533729535593864,Bakery
81369,basic,48.103098986440095,11.530653267013694,Organic Grocery
81369,Mykonos,48.10925564903154,11.538443059765065,Greek Restaurant
81369,Wirtshaus in Sendling,48.116692484847185,11.528403867022355,German Restaurant
81369,Holiday Inn Munich - Westpark,48.116556845627514,11.531299609632697,Hotel
81369,Rossmann,48.113352,11.53381,Drugstore
81369,Wöllinger,48.11305020457464,11.519747741560767,Brewery
81369,Burger House,48.117756,11.540782,Burger Joint
81369,Pablo Panini,48.105715,11.53796,Italian Restaurant
81369,Hofladen am Stemmerhof,48.121631592087965,11.540827499447134,Deli / Bodega
81369,Neuhofener Berg,48.10677209347398,11.541244983673096,Park
81369,Eisdiele Cremagelato in Sendling,48.11606646132011,11.52486951946466,Ice Cream Shop
81369,REWE,48.111019732682756,11.525649063479646,Supermarket
81369,Kebabo,48.11831620863008,11.53394840626987,Turkish Restaurant
81369,Kraftwerk München,48.10473849939359,11.53803174147961,Gym / Fitness Center
81369,dm-drogerie markt,48.11847773282137,11.540694099370967,Drugstore
81369,K+K Hotel am Harras,48.117021040990956,11.538198544749063,Hotel
81369,Biomarkt Stemmerhof,48.121659035542756,11.54051634530356,Organic Grocery
81369,Fressnapf,48.11638453778747,11.532816797063205,Pet Store
81369,Speedfitness,48.10695440860985,11.537204763345278,Gym / Fitness Center
81369,Restaurant Stemmerhof,48.1216498537882,11.540302829602847,Restaurant
81369,Hotel Amenity-Arirang,48.11395588742375,11.53361417045715,Hotel
81371,Beirut Beirut,48.11744976473725,11.548116393269643,Falafel Restaurant
81371,Gaststätte Großmarkthalle,48.118459148480795,11.553435126617329,Gastropub
81371,Ćevabdžinica 10,48.11945427746328,11.549473426605703,Bosnian Restaurant
81371,Alte Utting,48.11991454957758,11.556406153246822,Food Court
81371,Ninh Restaurant,48.12099360223228,11.544024424388319,Vietnamese Restaurant
81371,Kletter- und Boulderzentrum München,48.10676105352105,11.54556188035309,Climbing Gym
81371,Riviera,48.116900283025785,11.538955214735097,Ice Cream Shop
81371,Piccola Italia,48.12106663206353,11.54545744391378,Italian Restaurant
81371,Urban Bakery,48.11102134756922,11.549095207262669,Bakery
81371,Jacques' Wein-Depot,48.1231933,11.5487883,Wine Shop
81371,Wirtshaus Valley's,48.11717819951239,11.545085262525179,German Restaurant
81371,Südbad,48.11691492596895,11.543868407581538,Pool
81371,Centro Español,48.120075567636896,11.543892312620018,Spanish Restaurant
81371,Großmarkthalle München,48.119078548084566,11.553588522727964,Market
81371,Güney Cavusoglu Supermarkt,48.12172582166814,11.548545739594315,Grocery Store
81371,Myra,48.11120515111612,11.54837087082778,Turkish Restaurant
81371,Pizzeria Al Tabie,48.12181397666237,11.548544586847372,Italian Restaurant
81371,Leonardo Hotel München City West,48.11190059473541,11.547561163536509,Hotel
81373,Café Gans am Wasser,48.124988440999275,11.530540434848765,Café
81373,Audi Dome (Rudi-Sedlmayer-Halle),48.126123745366954,11.52516616916225,Basketball Stadium
81373,Café Schuntner,48.121270672081586,11.540986222851044,Café
81373,Tannengarten,48.123233,11.541172,Gastropub
81373,VIP Lounge Audi Dome,48.12628163082054,11.525079411782222,Lounge
81373,Feierwerk e.V.,48.129381095688146,11.533835968905299,Concert Hall
81373,Mehfil,48.11843707869279,11.533633395610913,Indian Restaurant
81375,REWE,48.115274,11.478155,Supermarket
81375,Studentenwohnheim Stiftsbogen,48.12311484348049,11.492480497555617,Residential Building (Apartment / Condo)
81375,Haderner Augustiner,48.11511743323059,11.479730418291904,German Restaurant
81375,Faros,48.119979163369486,11.491556881638015,Greek Restaurant
81375,Sushi & Wok,48.115123551195566,11.480276340057282,Sushi Restaurant
81375,ALDI SÜD,48.12037241669335,11.481817732979898,Supermarket
81375,Mehlfelds,48.11930577387442,11.490585039139278,German Restaurant
81375,EDEKA center,48.11949399944785,11.49118423461914,Supermarket
81375,Osteria Restaurant,48.11237568,11.50193009,Trattoria/Osteria
81375,H Am Ährenfeld,48.12011980584622,11.47838942706585,Bus Stop
81375,Empress Hotel,48.11503536700584,11.480126494098494,Hotel
81375,"Sparda-Bank Filiale Großhadern, Würmtalstr.",48.11574192857607,11.477146544089278,ATM
81377,Konditorei-Cafe Widmann,48.113377252064886,11.478917057844411,Pastry Shop
81377,Waldheim,48.10293320302563,11.478924445819347,German Restaurant
81377,Locanda Busento,48.10913198075332,11.502399996988691,Italian Restaurant
81377,La Scala,48.116766674339935,11.505893940636327,Italian Restaurant
81377,Trattoria 4 Mori,48.11445406675314,11.478899269402232,Trattoria/Osteria
81377,Gam-Sing,48.11781516297907,11.502578340711572,Chinese Restaurant
81377,EDEKA,48.10971537,11.50291286,Supermarket
81377,SUBWAY,48.11514211089377,11.477131826332242,Sandwich Place
81377,Deutsche Bank,48.11357676720071,11.47590885840441,Bank
81377,Hotel - Restaurant Neumayr,48.11269462304808,11.478046990876333,Hotel
81377,Rossmann,48.1123838325278,11.5030129679461,Drugstore
81377,Gasthaus zum Erdinger Weißbräu,48.11280435344757,11.478513954374215,German Restaurant
81377,Krambambuli,48.11240785888067,11.50364669794924,Bar
81379,Aumüllers Brotfabrik,48.095570448693486,11.524310263172724,Bakery
81379,NYX Hotel Munich,48.10219,11.529331,Hotel
81379,Sendling's Special Kebap House,48.09510259511961,11.522258712803481,Doner Restaurant
81379,Augustiner Schützengarten,48.104377945412786,11.53475758362341,Beer Garden
81379,HI Munich Park Hostel - DJH Jugendherberge München Park,48.099476231377075,11.543361655035298,Hostel
81379,Kyprios,48.101983237201296,11.543869711215393,Greek Restaurant
81379,Asam-Schlössl,48.09523728367195,11.542571602877224,German Restaurant
81379,Naturbad Maria Einsiedel,48.09575965826432,11.545429229736328,Pool
81379,Flosslände,48.09529309324168,11.546133063075322,Beer Garden
81379,Kyano,48.09463608619659,11.519934971857511,Greek Restaurant
81379,Leonardo Hotel München City South,48.10236900026179,11.53001556694749,Hotel
81379,Mangostin Asia,48.10023167599755,11.545920964682608,Asian Restaurant
81379,Santorini,48.09860009704816,11.538084947097605,Greek Restaurant
81379,Fit-Star,48.095400537081126,11.52369590833926,Gym / Fitness Center
81379,dm-drogerie markt,48.09990031293699,11.527646431431776,Drugstore
81379,Schöner Markt,48.10248844137788,11.531136711956561,Fruit & Vegetable Store
81379,Hans im Glück - Burgergrill,48.102371,11.529833,Burger Joint
81379,Lal Qila,48.10127741256885,11.523993818688394,Indian Restaurant
81379,Fressnapf,48.09503481,11.51146413,Pet Store
81379,Lidl,48.10073954868177,11.52801364660263,Supermarket
81379,Orterer Getränkemarkt,48.101729496381814,11.525781834323798,Liquor Store
81379,ALDI SÜD,48.101283007710386,11.525588131963593,Supermarket
81379,Cafe 111,48.094529,11.519748,Café
81379,REWE,48.098796,11.523103,Supermarket
81379,Dillinger,48.09962538504004,11.528994759580181,American Restaurant
81379,Eis 118 - La Fantastica,48.09898898349468,11.51958566350882,Ice Cream Shop
81379,Alnatura,48.10017331624748,11.52814537282347,Organic Grocery
81379,Bella Venezia,48.10075136487293,11.536681786263037,Italian Restaurant
81379,dm-drogerie markt,48.09500923766722,11.512300091597353,Drugstore
81379,Das Bootshaus,48.098696881924695,11.547256896115133,German Restaurant
81379,Shan,48.10398329931054,11.542565468310581,Indian Restaurant
81379,Das kleine Backhaus,48.100489546095915,11.538448969650746,Bakery
81379,ACHAT Premium Hotel München-Süd,48.09599041594867,11.512813468463353,Hotel
81379,EDEKA,48.094406,11.540372,Supermarket
81379,Alter Wirt,48.10050888666352,11.544953688342893,German Restaurant
81379,Cafe am Tierpark,48.100435674582,11.544770239704732,Italian Restaurant
81379,Holiday Inn,48.09497302260297,11.516073749576158,Hotel
81379,Grand Hotel Palladium,48.0955345671857,11.510492987239124,Hotel
81379,Majestic,48.094014135725,11.507164499068441,Asian Restaurant
81379,Backstube Wünsche,48.100585563436674,11.546989292373164,Bakery
81379,EDEKA,48.092589785378436,11.531021450782216,Supermarket
81379,Lidl,48.095449437279505,11.512542649943498,Supermarket
81475,Forstenrieder Park,48.07530458928832,11.482783430924876,Park
81475,Schloss Fürstenried,48.094309230992714,11.485645714809246,Castle
81475,Einkehr zur Schwaige,48.09508863224621,11.482793879587918,German Restaurant
81475,REWE Markt,48.08922282,11.48077589,Supermarket
81475,H Fürstenried West,48.08875453927406,11.480027807084621,Bus Stop
81475,H Tessiner Straße,48.090727240919676,11.475174063492975,Bus Stop
81475,Eiskafe Milano,48.08217012659234,11.485370785961438,Ice Cream Shop
81476,Restaurant Avli,48.083598498578304,11.494197521234153,Greek Restaurant
81476,Bäckerei Reis,48.08662169733356,11.495758932130816,Bakery
81476,Alter Wirt Forstenried,48.08443025205781,11.49450145129623,BBQ Joint
81476,dm-drogerie markt,48.0941034,11.498887,Drugstore
81476,Poseidon im Forst-Gasthaus Hubertus,48.074205619646214,11.490598269101842,Greek Restaurant
81476,Hollywood Super Bowling,48.09565782824595,11.497568018949279,Bowling Alley
81476,REWE,48.0951236,11.4954716,Supermarket
81476,REWE City,48.09592953,11.49786705,Supermarket
81476,Bad Forstenrieder Park,48.08651108902746,11.499415610879712,Pool
81476,AEZ,48.082297370363506,11.485713773690167,Food & Drink Shop
81476,Turn- u. Sportverein München- Solln e.V.,48.08036387762677,11.499411832790429,Soccer Field
81476,La Cucina Di Beppo,48.07859701169394,11.49082486034664,Italian Restaurant
81477,Sports4you! Fitness&Squash,48.090111536072456,11.503261354822907,Gym / Fitness Center
81477,KARE Kraftwerk,48.09464470489777,11.505202479496605,Furniture / Home Store
81477,McFIT,48.092385266119194,11.506932817237612,Gym / Fitness Center
81477,body + soul Center Sendling,48.091710117464174,11.507296747692234,Gym / Fitness Center
81477,die Küche im Kraftwerk,48.09457711021881,11.505309707019578,Modern European Restaurant
81477,Toni's prämierte Bratwurst,48.08850842945458,11.504360444157667,BBQ Joint
81477,La Trattoria,48.09029829261094,11.520822916868047,Trattoria/Osteria
81477,Dehner Gartencenter,48.09116811,11.50727627,Garden Center
81477,Rossmann,48.07856821292459,11.507523031875639,Drugstore
81477,Pavillon,48.07969741339887,11.503019710756991,Vietnamese Restaurant
81477,McDonald's,48.088282877190245,11.504712270315256,Fast Food Restaurant
81477,ALDI SÜD,48.09030596834396,11.505916136132415,Supermarket
81477,Deutsche Bank Filiale,48.07806063287008,11.508176143067658,Bank
81477,MediaMarkt,48.09294526946296,11.504047438502312,Electronics Store
81477,H Marienstern,48.08893176009253,11.518480853523641,Bus Stop
81479,Al Caminetto,48.07798375,11.52032083,Italian Restaurant
81479,Käfer Genuss-Raum,48.077482,11.519772,Deli / Bodega
81479,Sidhartha Indisches Restaurant,48.072526972370156,11.520110252254026,Indian Restaurant
81479,Sollner Hof,48.07598,11.51406,German Restaurant
81479,Bäckerei Konditorei Reis,48.07813,11.51807,Pastry Shop
81479,Vollcorner Biomarkt,48.08147890755921,11.529297414827115,Farmers Market
81479,Gasthof Hinterbrühl,48.086071494288745,11.540539354821624,German Restaurant
81479,Zöttl Bäckerei,48.081022557331266,11.52857840721024,Bakery
81479,Agip,48.07561971694507,11.523228015891332,Gas Station
81479,Rossmann,48.07658078445473,11.52615487575531,Drugstore
81479,Da Noi,48.081117595696085,11.528799509187838,Italian Restaurant
81479,Halong Bay,48.08103589074193,11.528354874816518,Asian Restaurant
81479,Iberl's Gasthaus & Biergarten,48.070886541432216,11.514804706609961,German Restaurant
81479,Kino Solln,48.080792274034586,11.526332724211247,Movie Theater
81479,Käfer in Solln,48.0772952,11.5199777,Café
81479,E xpress,48.07670645,11.51764593,Supermarket
81479,H Solln Bahnhof,48.07918285348803,11.52718329416961,Bus Stop
81479,Gasthof Schützenlust,48.076173286051635,11.515655248024736,German Restaurant
81539,Shotgun Sister Coffeebar,48.113382,11.58516,Café
81539,Sangam,48.1095918417942,11.580366406806236,Indian Restaurant
81539,Schinken-Peter,48.11094790226464,11.584574534278056,German Restaurant
81539,Motel One München-Campus,48.10895749591011,11.579818235773635,Hotel
81539,REWE,48.11044732,11.58009749,Supermarket
81539,dm-drogerie markt,48.111128627364174,11.595300673610723,Drugstore
81539,Giesinger Bräu,48.115542431061165,11.576862211887484,Brewery
81539,Eiscafé Verona,48.109742615263855,11.595100875052395,Ice Cream Shop
81539,Feinkost Cannova,48.11319690977822,11.577048242612465,Italian Restaurant
81539,Hamam Anatolia,48.11286647812093,11.575886232193342,Spa
81539,Solo Pizzeria Italia,48.11489,11.57576,Pizza Place
81539,Mystikon,48.112662034587025,11.584352011769015,Greek Restaurant
81539,Gelateria Italiana Riviera,48.11421676676263,11.578612096755585,Ice Cream Shop
81539,Bar On,48.11474983217186,11.592637268340525,Hookah Bar
81539,Leonardo Hotel & Residenz München,48.11350094917069,11.583620042122078,Hotel
81539,McFIT,48.10827190699198,11.580092750409676,Gym / Fitness Center
81541,Attentat Griechischer Salat,48.11744417545919,11.584255871937335,Greek Restaurant
81541,Ambar Bistro,48.11780870587828,11.582421782434857,Bistro
81541,Alpenhof,48.1179312770712,11.581743081243486,Italian Restaurant
81541,La Fattoria,48.12319876864676,11.577637040289828,Italian Restaurant
81541,Auer Dult,48.12537771472067,11.583044306634926,Fair
81541,Schwarzer Hahn,48.126036262155075,11.578710199182508,Pub
81541,keko,48.12572300747345,11.582540597669746,Turkish Restaurant
81541,Das Schulz,48.11504180272277,11.593662353614516,Café
81541,Cafe Hüller,48.12690344179393,11.578967625295803,Café
81541,ELEMENTS,48.11707047097351,11.60183846012405,Gym / Fitness Center
81543,Lucullus,48.11747378268964,11.570439826602465,Greek Restaurant
81543,Giesinger Garten,48.1160256315688,11.56831757599685,German Restaurant
81543,Rosengarten,48.118917896489094,11.565169865490853,Park
81543,Kebab Haus,48.11594216367028,11.573065206277766,Kebab Restaurant
81543,Isarstrand Wittelsbacherbrücke,48.12138639770749,11.56750451471152,Beach
81543,Türkitch,48.12026405260359,11.57348983450605,Doner Restaurant
81543,Tierpark Hellabrunn,48.09989922143517,11.553472830126566,Zoo
81545,Harlachinger Jagdschlössl,48.087004598043976,11.55538508265851,German Restaurant
81545,Menterschwaige,48.082126044503,11.545444313354876,German Restaurant
81545,Harlachinger Einkehr,48.09587,11.55788,German Restaurant
81545,Bella Roma,48.090647686135604,11.55705592773703,Italian Restaurant
81545,REWE City,48.09367352,11.56908569,Supermarket
81545,Tiroler Platz,48.096147437980335,11.563616683050705,Plaza
81545,EDEKA,48.093303,11.569336,Supermarket
81545,H Säbener Straße,48.094820948630954,11.573926359415054,Bus Stop
81547,Taverna Limani,48.10039461950019,11.58004127513487,Taverna
81547,FC Bayern München,48.10084415587459,11.572135717888065,Sports Club
81547,Gasthaus Gartenstadt,48.097988918687506,11.58082301983473,German Restaurant
81547,Bad Giesing-Harlaching,48.10227829601429,11.5763823012131,Gym Pool
81547,Poseidon,48.107405013389126,11.574726767436026,Greek Restaurant
81547,Noah’s Eiswelt,48.09739941910076,11.581407262853467,Ice Cream Shop
81547,Manzil,48.108094668870926,11.573224202787939,Indian Restaurant
81547,Café am Wettersteinplatz,48.10938125466656,11.575918436973346,Café
81547,TSV München von 1860 e.V.,48.10182021227434,11.56517918481314,Sports Club
81547,Wettersteinplatz,48.109029322345165,11.575157633383615,Plaza
81547,REWE,48.10949323050343,11.57493650463093,Supermarket
81547,Hotel Wetterstein,48.10783100944348,11.572905330376528,Hotel
81549,St. Benno Einkehr,48.10260896593984,11.595529038188765,German Restaurant
81549,Locca lounge,48.10870595796794,11.605012715695066,Lounge
81549,Hit,48.09430559979101,11.60352169898868,Supermarket
81549,Lemon Lounge,48.10715408597316,11.604252080596448,Lounge
81549,Fit-Star,48.10730522472092,11.599192728836101,Gym / Fitness Center
81549,Zimtschneckenfabrik,48.105970199831106,11.593124622745872,Pie Shop
81549,MVG Museum,48.10331780502734,11.602137707298692,Museum
81549,Barka,48.08885068831329,11.6078771976887,Greek Restaurant
81549,Cincinnati Kino,48.09153152037283,11.593947653114693,Movie Theater
81549,Orterer Getränkemarkt,48.105230895617304,11.60440900697109,Liquor Store
81549,dm-drogerie markt,48.10547055171911,11.60287949570079,Drugstore
81549,Trattoria piccolo mondo,48.089802459546114,11.611193933580795,Trattoria/Osteria
81549,Lidl,48.1059044,11.6038196,Supermarket
81549,ALDI SÜD,48.10509539082842,11.5973137709315,Supermarket
81549,EDEKA,48.1082859276026,11.604199497055754,Supermarket
81549,Little Dragon,48.10800563902846,11.60406711274982,Asian Restaurant
81549,obst und gmias,48.10524905073883,11.590993680693705,Fruit & Vegetable Store
81549,E xpress Türkyilmaz,48.08764739999999,11.5993747,Supermarket
81667,Zum Kloster,48.13228746232307,11.600609923932844,German Restaurant
81667,Nana - meze & wine,48.12982342931047,11.598019078244242,Jewish Restaurant
81667,Preysinggarten,48.13240943743252,11.599416796070283,German Restaurant
81667,Cafe Noel,48.1289865491426,11.596864535992212,Bistro
81667,Mezzodi,48.13110698001272,11.596327372981314,Wine Bar
81667,Haidhauser Augustiner,48.129341,11.601388,German Restaurant
81667,Bombay Tandoori,48.12780336925669,11.595254217270467,Indian Restaurant
81667,Chocolatte Eis,48.13210592451578,11.597827264550089,Ice Cream Shop
81667,Cafe im Hinterhof,48.12958127193482,11.599530597030236,Café
81667,Weißenburger Platz,48.126770035625746,11.59452950311318,Plaza
81667,Bordeauxplatz,48.13019343388357,11.600704193115234,Plaza
81667,Dal Cavaliere,48.128693,11.594771,Italian Restaurant
81667,Negroni,48.130577,11.597417,Cocktail Bar
81667,Caffé Lollo Rosso,48.13141696904718,11.598863195301934,Italian Restaurant
81667,Barroom,48.131539,11.596832,Bar
81667,Cibo,48.129566948007955,11.592311363301565,Doner Restaurant
81667,Chez Fritz Brasserie,48.132124183207075,11.594570125215908,French Restaurant
81667,Maria Passagne,48.13133369771137,11.596146427569028,Bar
81667,Biergarten Hofbräukeller,48.13453769249942,11.595061461702878,Beer Garden
81667,Cafe Reichshof,48.13092165292697,11.599654862072436,Bakery
81667,Nomiya,48.131653113488255,11.598525848487508,Sushi Restaurant
81667,Café ZimtZicke,48.13021335,11.60528928,Café
81667,Philharmonie,48.131796,11.590691,Concert Hall
81667,Wiener Platz,48.13396469030484,11.593963329438955,Plaza
81667,True&12,48.131239,11.589725,Ice Cream Shop
81667,Fortuna Cafébar,48.129840144719985,11.598025453552559,Café
81667,Crêperie Bernard et Bernard,48.13385343870569,11.594792728722611,Café
81667,Hostaria Fratelli,48.133704,11.596451,Italian Restaurant
81667,L'Angolo della Pizza,48.13121124103346,11.606682638122802,Italian Restaurant
81667,Johannis Café,48.13344705045135,11.597458762037077,Pub
81667,liTtle RaBbiT’s ROoM,48.13425966440561,11.596067123640008,Café
81667,Teatro Tapas,48.12636219926552,11.59525384835218,Tapas Restaurant
81667,Johannisplatz,48.133583148595115,11.598967142429396,Plaza
81667,White Rabbit's Room,48.12703252176763,11.592983094255652,Café
81667,Muffathalle,48.13307166686882,11.589564569819789,Music Venue
81667,Residence Inn Munich City East,48.1312684,11.6078784,Hotel
81667,IDEAL Espresso Bar,48.128518,11.595179,Coffee Shop
81667,Pizzesco,48.13148792470339,11.589700607767776,Pizza Place
81667,Gasteig Kulturzentrum,48.13120813325616,11.591534495848737,Cultural Center
81667,Hofbräukeller,48.13412753916154,11.59562000876261,Bavarian Restaurant
81667,Ampere,48.13281424059394,11.589471101760862,Rock Club
81667,Müller'sches Volksbad,48.13183435201353,11.588440225707087,Pool
81667,Muffathalle Biergarten,48.13286497644354,11.58908081759047,Beer Garden
81667,L'Osteria,48.132357297866534,11.59071023692405,Trattoria/Osteria
81667,Manam,48.129814,11.591833,Thai Restaurant
81667,Isarstrand Muffathalle,48.13351044199696,11.588720555514966,Beach
81669,Thessaloniki,48.12154854454176,11.599192043564,Greek Restaurant
81669,Goldener Drache,48.113736067396644,11.602837001983604,Chinese Restaurant
81669,Tap-House Munich,48.125254,11.599119,Beer Bar
81669,Zar Restaurant & Bar,48.114342118376506,11.61368799253828,Restaurant
81669,ALDI SÜD,48.12086269902089,11.60207327410229,Supermarket
81669,Merhaba,48.12646643784623,11.596557145735602,Turkish Restaurant
81669,Der Sizilianer,48.12617274816494,11.595191088976925,Italian Restaurant
81669,Mitani,48.12680641446012,11.593930315884437,Japanese Restaurant
81669,Atelier Gourmet,48.12710333040378,11.592498382461175,French Restaurant
81669,Ganesha,48.1265784260598,11.597448700852,Indian Restaurant
81671,CrossFit Munich Downtown,48.12220045702508,11.60849544892004,Gym / Fitness Center
81671,Restaurant Poseidon,48.11858503138923,11.609491405067766,Greek Restaurant
81671,Boulderwelt,48.12793620631146,11.608794020044447,Climbing Gym
81671,Stefan Sport Center,48.1217414603133,11.606446285226108,Gym
81671,BardaRock,48.123354772723374,11.606051738945363,Bar
81671,Crown's Club,48.121776060114016,11.606357505840355,Nightclub
81671,Tanzschulen Circulo,48.12419622717027,11.602222241547482,Dance Studio
81671,Khanitta im Werksviertel,48.1247598704746,11.60580313098052,Thai Restaurant
81671,Upside East,48.12227731310194,11.606374697572909,Lounge
81671,Mitte Meer,48.1248841645535,11.604484837295967,Fish Market
81673,Kaufland,48.129374266017216,11.626123333279875,Big Box Store
81673,Bäckerei Aumüller,48.128497,11.630387,Bakery
81673,Schneider Bräuhaus,48.127607092846816,11.629952922397695,Bavarian Restaurant
81673,Baumkirchner,48.127246626973424,11.62976139860425,Gastropub
81673,Kreiller's,48.12747080329004,11.634024338920522,Café
81673,MorgenLand Falafel- & Döner-House,48.13094219106378,11.616613826919039,Middle Eastern Restaurant
81673,Holiday Inn Munich City East,48.13157799331222,11.628176711255946,Hotel
81673,Ibis München City Ost,48.129485671068096,11.626907068068459,Hotel
81673,REWE City,48.1274233,11.63579143,Supermarket
81673,REWE Ewgenij Balagun,48.13293198,11.63193026,Supermarket
81673,Bogner,48.130531860700756,11.64596355303915,Accessories Store
81673,Rossmann,48.126958137907906,11.633824435771887,Drugstore
81673,Bella Rosa,48.13023889422354,11.619588699496427,Italian Restaurant
81673,La Cantinetta,48.13208574677205,11.626594988360585,Italian Restaurant
81673,dm-drogerie markt,48.13291158023901,11.631862245368893,Drugstore
81673,Satyam,48.13103309061719,11.616156570552551,Indian Restaurant
81673,Holiday Inn Express Munich City East,48.131592,11.628213,Hotel
81673,Dal Maestro,48.13092179004774,11.617261608837696,Italian Restaurant
81673,Pastello,48.12966280552615,11.631207392326585,Italian Restaurant
81673,Deutsche Bank,48.12619418230644,11.641478502243672,Bank
81673,Prima Markt,48.12823214895686,11.622206193033513,Grocery Store
81673,Central Hotel-Apart München,48.12657717925876,11.630003692124692,Hotel
81673,REWE City,48.12661651,11.63160312,Supermarket
81673,Sushi Bar Blue Ingwer,48.130516580455826,11.618340009940592,Asian Restaurant
81673,EDEKA,48.129990013193535,11.622620638884252,Supermarket
81673,Echardinger Einkehr,48.12095701217376,11.625286325026622,German Restaurant
81673,Lidl,48.13124262089874,11.624364316969604,Supermarket
81673,Juicy,48.13002782437655,11.621802029902598,Hookah Bar
81673,ESV München-Ost e.V.,48.132588192379906,11.633557332198952,Athletics & Sports
81675,Friedensengel,48.14133093865825,11.596997380256653,Monument / Landmark
81675,Feinkost Käfer,48.140460779107485,11.60215760282063,Gourmet Shop
81675,Käfer Schänke,48.14051503746792,11.601584565390013,Restaurant
81675,Burger House,48.136355859899275,11.59804947919219,Burger Joint
81675,Museum Villa Stuck,48.14057562656743,11.59957766532898,Art Museum
81675,Prinzregententheater,48.13925047949221,11.605680215230949,Concert Hall
81675,Jazzclub Unterfahrt,48.13503394493276,11.601015329360962,Jazz Club
81675,Taverne Paros,48.13377982572747,11.60183269557094,Taverna
81675,Chuchin,48.14259,11.601262,Vietnamese Restaurant
81675,Swagat,48.139774,11.606399,Indian Restaurant
81675,Prinzregentenplatz,48.139430439659286,11.60685577972113,Plaza
81675,Thao,48.137046,11.607147,Vietnamese Restaurant
81675,VogelMaier Kaffeerösterei,48.136329,11.60855,Coffee Shop
81675,Rusticana,48.133345,11.610156,Steakhouse
81675,Fitness First Platinum Swim Club,48.136406891438355,11.614136695861816,Gym / Fitness Center
81677,CrossFit eo,48.140814371456734,11.62784409553123,Gym
81677,GARIBALDI Bogenhausen,48.14049926973272,11.615102971976299,Gourmet Shop
81677,Konditorei Chocolatte,48.13850313284318,11.611181930584877,Pastry Shop
81677,House Of Flames Harley Davidson,48.13779860398444,11.629362058161352,Motorcycle Shop
81677,Acquarello,48.142177778388536,11.613621976881863,Italian Restaurant
81677,basic,48.141396985001855,11.615182493947547,Organic Grocery
81677,Sushi Cent,48.13783314852926,11.608091490519916,Japanese Restaurant
81677,Backspielhaus,48.14105113141711,11.627252099652333,Bakery
81677,Saphir,48.13825132321783,11.607949350582699,Bakery
81677,Holiday Inn Munich - Leuchtenbergring,48.1355543,11.6141864,Hotel
81677,Wirtshaus Zamdorfer Biergarten,48.13989873955287,11.628628711077795,German Restaurant
81679,Kerala,48.14173648483506,11.60291685430222,Indian Restaurant
81679,Dalmatiner Grill,48.14122119022948,11.603587151973215,Restaurant
81679,Ristorante Pizzeria Il Galeone,48.152722305879735,11.613685853030164,Italian Restaurant
81679,REWE City,48.15064884,11.60137464,Supermarket
81735,Michaeligarten,48.115204347029646,11.638041764802264,Bavarian Restaurant
81735,Michaelibad,48.11700838205327,11.636729307592265,Pool
81735,Kleines Brauhaus Dicker Mann,48.11844152269727,11.632931984811844,German Restaurant
81735,Taverne Nefeli,48.11508813231806,11.625477982314049,Taverna
81735,Lidl,48.1063525,11.6357784,Supermarket
81735,dm-drogerie markt,48.1063232421875,11.645950317382812,Drugstore
81735,Life - Park & Shop,48.106418,11.6453,Shopping Mall
81735,REWE,48.1063923936005,11.644821166992188,Supermarket
81735,Restaurant Pallas Athene,48.111985363162304,11.632381831079778,Trattoria/Osteria
81735,Mercure Hotel München Süd Messe,48.10239491785141,11.65927584874133,Hotel
81735,H Quiddestraße,48.10922212815494,11.646771430470507,Bus Stop
81735,Blumen-Heller,48.11567095363603,11.62490576505661,Flower Shop
81735,REWE CITY,48.10728953068578,11.656100652997521,Supermarket
81735,PENNY,48.10715,11.65669,Discount Store
81737,Forschungsbrauerei,48.094074171643264,11.625015811475812,Brewery
81737,Der Hufnagel,48.10129667703334,11.628676281156924,German Restaurant
81737,Lezizel Manti - Türkische Teigtaschen,48.08948932610871,11.630712747573853,Turkish Restaurant
81737,Pfanzeltplatz,48.10065734010168,11.630469919836221,Plaza
81737,Gartencenter Seebauer,48.106782526344965,11.621503342858489,Garden Center
81737,Segafredo,48.10125149120702,11.644908482561602,Café
81737,Primark,48.10153351450213,11.644850752420618,Clothing Store
81737,Roma,48.100705780865816,11.625217107211224,Italian Restaurant
81737,Lidl,48.09035826062806,11.633199155330658,Supermarket
81737,Starbucks,48.101133240817305,11.645643308073014,Coffee Shop
81737,Il Ruscello,48.09990035203875,11.6305145889661,Italian Restaurant
81737,Eisblüte,48.10858130293805,11.618709109332594,Ice Cream Shop
81737,Shoya,48.10031170769104,11.644175768750953,Sushi Restaurant
81737,Fit Star,48.09943353782486,11.646138691787655,Gym / Fitness Center
81737,kinnings babythings,48.112188,11.61692,Baby Store
81737,Perlacher Hof,48.09834165414549,11.629943419738225,German Restaurant
81737,Hugendubel,48.10159037607909,11.64492804362578,Bookstore
81737,Gelati Eiscafé,48.10102349617495,11.64470524684368,Ice Cream Shop
81737,REWE,48.09931339,11.63241816,Supermarket
81737,PEP Perlacher Einkaufspassagen,48.09975858,11.64308355,Shopping Mall
81737,Ristorante Girasole,48.11194157323534,11.618156576294128,Italian Restaurant
81737,Saturn,48.09999300961612,11.643620000000055,Electronics Store
81737,An Minh,48.101065343825276,11.645857798008896,Asian Restaurant
81737,SaniPep Apotheke,48.1007548,11.6445356,Pharmacy
81737,dm-drogerie markt,48.10074850511945,11.644425533729532,Drugstore
81737,China-Restaurant Xin Yun,48.111936597044846,11.618172299766655,Chinese Restaurant
81737,Il Gelato Italiano,48.100151990204445,11.630486694117012,Ice Cream Shop
81737,NORDSEE,48.10089085710144,11.644344313479724,Seafood Restaurant
81737,Telekom Shop - Geschlossen wegen Umbau,48.10043861935795,11.644585132598877,Mobile Phone Shop
81737,H&M,48.101761,11.645392,Clothing Store
81737,Fit-Star,48.09951776713819,11.645018994168993,Gym / Fitness Center
81737,cocos,48.101253965256895,11.644848970786907,Asian Restaurant
81737,Kaufland,48.099953278215516,11.644297398174462,Big Box Store
81737,C&A,48.1003024009018,11.644386785028148,Clothing Store
81737,EDEKA Linzmair,48.1041217,11.6250766,Supermarket
81737,Thai Curry Delhi,48.10043006843836,11.644150615972732,Asian Restaurant
81737,Peek & Cloppenburg,48.100440410609195,11.643724143505096,Clothing Store
81737,ALDI SÜD,48.087807762696244,11.639346302123602,Supermarket
81737,Traublinger,48.1005582453682,11.644178509102764,Food & Drink Shop
81737,Hotel NH München City Süd,48.11125512001072,11.617938001537109,Hotel
81737,H&M,48.10137656746261,11.644854764265851,Clothing Store
81737,H Diakon-Kerolt-Weg,48.111940374882714,11.618105331299892,Bus Stop
81739,Terra Kreta,48.08564377035935,11.674574035877491,Greek Restaurant
81739,Leonardo Hotel Munich City-East,48.086568,11.646153,Hotel
81739,O’ROJE,48.08937225311701,11.643381868171149,Restaurant
81739,Mercure Hotel München Neuperlach Süd,48.092206761912685,11.64434793383447,Hotel
81739,Sportplatz SV Waldperlach,48.088929780081884,11.668119838892268,Soccer Field
81739,Hotel Villa Waldperlach Garni,48.08620709900533,11.673339532619936,Hotel
81739,H Waldheimplatz,48.0858643958634,11.674333779322142,Bus Stop
81739,Truderinger Wald,48.085503431166124,11.676552081737892,Forest
81739,Leiberheim,48.07901216048911,11.672018911767717,Beer Garden
81825,body + soul Center Trudering,48.12243724042513,11.662373344523186,Gym / Fitness Center
81825,Gasthof Obermaier,48.121619277159525,11.67023596226242,German Restaurant
81825,EDEKA Sanetra,48.123988453462815,11.670408296693527,Supermarket
81825,Lindengarten,48.114932286267944,11.678511558930442,German Restaurant
81825,EDEKA Jusic,48.11864,11.65878,Supermarket
81825,dm-drogerie markt,48.1223517,11.6612886,Drugstore
81825,Lidl,48.12711775378951,11.654852628707886,Supermarket
81825,REWE,48.1226491117728,11.670907696626216,Supermarket
81825,Rossmann,48.118429838627335,11.658459167564894,Drugstore
81825,Rokkos,48.11738005354283,11.65547719557876,Pub
81825,Surya,48.12039304883516,11.67190988012612,Indian Restaurant
81825,dm-drogerie markt,48.127301901376754,11.654413065520657,Drugstore
81825,SUBWAY,48.12172954163856,11.663379047388997,Sandwich Place
81825,EDEKA,48.12497339,11.65516239,Supermarket
81825,Ihle,48.12614902338195,11.644854598679716,Bakery
81825,B&B Hotel München City-Ost,48.1197887,11.675598,Hotel
81825,MAHAG,48.12120717758579,11.666567206819742,Auto Dealership
81825,Burger King,48.120811854689094,11.665441989898682,Fast Food Restaurant
81825,HIT,48.12473447855568,11.664641177009573,Supermarket
81825,Lidl,48.11264275620967,11.650646924972534,Supermarket
81825,McDonald's,48.11927264393009,11.677409426400681,Fast Food Restaurant
81825,La Viletta,48.1134970837481,11.650618644128082,Italian Restaurant
81825,Basic,48.12288,11.670641,Organic Grocery
81825,PENNY,48.11986223,11.67593,Supermarket
81825,Netto Filiale,48.13041,11.65111,Supermarket
81827,Il Gelato & Caffè,48.11402943473337,11.69859984112599,Ice Cream Shop
81827,Guru,48.11358594904781,11.69992802990035,Indian Restaurant
81827,Franziskaner Garten,48.10909694677329,11.670506785484804,Beer Garden
81827,Croatica Grillrestaurant,48.11257553100586,11.70431137084961,Mediterranean Restaurant
81827,Wienerwald,48.1139522,11.6983838,Fried Chicken Joint
81827,Antica Cantina,48.116164185555654,11.680952747346414,Italian Restaurant
81827,Ristorante Cortile,48.111157,11.708799012181446,Italian Restaurant
81827,OBI,48.11933284635129,11.68671727180481,Hardware Store
81827,Truderinger Waldwirtschaft,48.11089493921191,11.710824432255754,German Restaurant
81827,Seidl's Café,48.11236598802031,11.704984191049817,Café
81827,Royal Garden China Restaurant & Bar,48.112611265697865,11.676843876827002,Chinese Restaurant
81827,H Turnerstraße,48.11211130799479,11.69042372087394,Bus Stop
81827,Vodafone Shop,48.113590046036165,11.700854775463085,Mobile Phone Shop
81827,DEVENT.,48.1011968,11.7017793,Business Service
81827,H Von-Erckert-Straße,48.11145395189335,11.709273047976506,Bus Stop
81829,Thi Min Vietnam,48.13222750539925,11.690978418507083,Vietnamese Restaurant
81829,Riem Arcaden,48.13206374233081,11.690766173210413,Shopping Mall
81829,Five Guys,48.1328242,11.6902778,Fast Food Restaurant
81829,Hotel Prinzregent,48.14040088428625,11.682128407627385,Hotel
81829,LEGO Shop,48.132112446568925,11.691577081859243,Toy / Game Store
81829,Novotel München Messe,48.132921285261034,11.692077473878314,Hotel
81829,Hugendubel,48.13201274830352,11.692366097607705,Bookstore
81829,Old Airport Tower,48.13774400222437,11.69044017791748,Monument / Landmark
81829,Enrico Rossini,48.13202601137747,11.691333863465465,Pizza Place
81829,Schuhbecks Teatro,48.137076935466,11.684397904091265,Performing Arts Venue
81829,Dehner,48.12560536022002,11.673450333951727,Garden Center
81829,Fantasia del Gelato,48.13206070845475,11.691552309148936,Ice Cream Shop
81829,Riemer Park,48.128918785554696,11.70962333679199,Park
81829,Truderinger Wirtshaus,48.12582608763595,11.673946627475228,German Restaurant
81829,dm-drogerie markt,48.132286071777344,11.689647674560547,Drugstore
81829,Saturn,48.1319334,11.6895291,Electronics Store
81829,Pommes Freunde,48.13204,11.691253,Hot Dog Joint
81829,H&M,48.131926,11.692081,Clothing Store
81829,H4 Hotel München Messe,48.13656410589691,11.689354355730757,Hotel
81829,Nespresso Boutique,48.132164,11.692932,Coffee Shop
81829,La Dolce Vita,48.12649764992325,11.673596269647074,Italian Restaurant
81829,mamma's pastabar,48.132033769987046,11.691076544308578,Italian Restaurant
81829,Müller,48.13203888693487,11.692373239199119,Drugstore
81829,Telekom Shop,48.13189100000003,11.692841411045038,Mobile Phone Shop
81829,H2 Hotel München Messe,48.13652682113662,11.689313650131226,Hotel
81829,dean&david,48.1321250839857,11.690883595868213,Salad Place
81829,Ristorante Pizzeria Calabrone,48.13246180761031,11.691540026024411,Italian Restaurant
81829,Hofbräu München,48.142905024466216,11.699061720143678,Brewery
81829,Willy-Brandt-Platz,48.132799919609255,11.69121265411377,Plaza
81829,Dunkin',48.13204188519955,11.690906652922713,Donut Shop
81829,EDEKA Uhlig,48.13203221273045,11.690924891219646,Supermarket
81829,Zara,48.13193040151815,11.692404693151953,Clothing Store
81829,Testa Rossa Caffèbar,48.131605209526676,11.691100978097339,Café
81829,SUBWAY,48.13203377610432,11.690948057957533,Sandwich Place
81829,Haiky,48.13206545245473,11.691189781407877,Sushi Restaurant
81829,Landhotel Martinshof,48.14028161936492,11.683027501474484,Hotel
81829,König Ludwig an der Messe,48.13229472397838,11.691363376092518,German Restaurant
81829,Hotel Am Moosfeld,48.13271829710875,11.661877763863128,Hotel
81829,Staples,48.13447918990691,11.661983140839428,Paper / Office Supplies Store
81829,Sportanlage Astrid-Lindgren-Strasse 3,48.131640076203105,11.707080368328281,Soccer Field
81829,Riemer See,48.12728604372689,11.7079496383667,Lake
81829,Buga-Berg,48.13072333455285,11.710481643676758,Mountain
81829,H Stahlgruberring,48.13454705026121,11.663961410522461,Bus Stop
81925,Bäckerei Riedmair,48.16742,11.6244,Bakery
81925,The Westin Grand München,48.15209382316851,11.617130041122437,Hotel
81925,Arabella Spa,48.1523888345986,11.616083456283318,Spa
81925,Zoe's Restaurant,48.16458631120664,11.62874297019911,Asian Restaurant
81925,Westin Executive Club Lounge,48.15220903253978,11.616342722606804,Restaurant
81925,Fitness Studio Arabellapark,48.15058629150887,11.620375559439953,Gym / Fitness Center
81925,Lohengrins,48.162399667304825,11.628874317824135,German Restaurant
81925,Wochenmarkt am Rosenkavalierplatz,48.15187075941937,11.620086708890666,Farmers Market
81925,Cedar Lounge,48.151025005675,11.619388113433482,Middle Eastern Restaurant
81925,Rothof Sportpark,48.14662126260383,11.624704662883058,Athletics & Sports
81925,Sankt Emmeramsmühle,48.175870602608605,11.627085449368856,German Restaurant
81925,Alba Trattoria,48.155424,11.613793373107573,Trattoria/Osteria
81925,REWE Center,48.15266437,11.61986639,Supermarket
81925,Hans im Glück - Burgergrill,48.1510290530795,11.620868170413084,Burger Joint
81925,Freisinger Hof Hotel Munich,48.17422826884451,11.629311508318803,Hotel
81925,Hotel Rothof,48.14810661729248,11.624477944228648,Hotel
81925,Ristorante Caruso,48.173040802453166,11.636401959276897,Italian Restaurant
81925,Sheraton Munich Arabellapark Hotel,48.15110214727682,11.618436365789421,Hotel
81925,Sheraton Club Lounge,48.15116936006157,11.617718517513346,Diner
81925,Leonardo Hotel Munich Arabellapark,48.15830443162261,11.621430774847669,Hotel
81925,Leonardi,48.14908731719014,11.620337062845298,Restaurant
81925,Schlösselgarten,48.15830480029307,11.621428781501024,Beer Garden
81925,Burda Bar,48.14997477843331,11.62221597853575,Coffee Shop
81925,WestinWORKOUT,48.15220522700228,11.616298356203941,Gym / Fitness Center
81925,Wiener's,48.15156345781375,11.619981242855422,Café
81925,Kafe Kult,48.16508630879499,11.622797301864667,Bar
81925,Bar5,48.15147824846402,11.618503332138062,Hotel Bar
81925,Rossmann,48.15139168883241,11.619964621521852,Drugstore
81925,Cosimawellenbad,48.154470233309404,11.62911305056883,Water Park
81925,NAMASTE,48.15143219341984,11.62000229869846,Indian Restaurant
81925,Anema e Core,48.163653280855925,11.62350395272698,Italian Restaurant
81925,Paulaner's Wirtshaus mit Biergarten,48.15195393817342,11.615857153677693,Beer Garden
81925,Bistro Föhn,48.151149706971204,11.62041269651748,Italian Restaurant
81925,Deutsche Bank,48.15047822660733,11.618846114639723,Bank
81925,Restaurant Zen,48.15249489528729,11.617008165764164,Asian Restaurant
81925,Die Neue Emma,48.173480457404274,11.628808379173279,Grocery Store
81925,Rosenkavalierplatz,48.15234508363433,11.620098753620058,Plaza
81925,dean&david,48.15144164565364,11.619914307074817,Salad Place
81925,F Bar,48.15149500008785,11.61996577543831,Café
81925,Cadillac & Veranda,48.151400037140874,11.619874256859662,Movie Theater
81925,KimSang Panasia Cuisine,48.1515042642795,11.619504711232853,Chinese Restaurant
81925,TS Jahn Sportverein,48.14492444451652,11.627701619440774,Gym
81925,Farrys,48.151538,11.619944,Cocktail Bar
81925,Forum Bogenhausen,48.148158948428545,11.617442771437513,Shopping Mall
81925,ALDI SÜD,48.14816295941887,11.617427404742955,Supermarket
81925,H Richard-Strauss-Straße,48.14873996331917,11.616641687769864,Bus Stop
81925,Bürgerpark,48.14841978730038,11.6255403728607,Park
81925,Aqua & Soul,48.17269404554229,11.635560723501971,Pool
81927,dm-drogerie markt,48.1594677,11.6430643,Drugstore
81927,Martinelli,48.155396,11.637115,Italian Restaurant
81927,La Cambusa,48.154973316188325,11.630035238317522,Italian Restaurant
81927,Pyrsos,48.154944338824556,11.637707948684692,Greek Restaurant
81927,Dimos Griechisches Restaurant,48.17285691166225,11.636534458481252,Greek Restaurant
81927,Champor,48.14599031739552,11.637576739350331,Malay Restaurant
81927,Amber,48.15148564408899,11.640788798299328,Indian Restaurant
81927,Casa Mia,48.16382489798078,11.645739711149547,Italian Restaurant
81927,REWE City,48.15770074,11.64096391,Supermarket
81927,REWE,48.15784744249265,11.64105575940159,Supermarket
81927,Ententeich Taimerhofstraße,48.16596520220823,11.633470368046664,Lake
81927,Rossmann,48.157855831977926,11.641589934886476,Drugstore
81927,Lidl,48.16529543343694,11.645246289590432,Supermarket
81927,Alter Kernhof,48.14647858872027,11.639503067322702,German Restaurant
81927,Bonsai Garden,48.14800749606478,11.640306471644992,Chinese Restaurant
81927,ALDI SÜD,48.168368947533736,11.633344889969125,Supermarket
81927,SB Backshop,48.15832767046539,11.642019573459898,Bakery
81927,S Johanneskirchen,48.168252050782606,11.645907882445572,Light Rail Station
81929,Tantra,48.148759378762485,11.65001687165391,Restaurant
81929,Golfclub München Riem,48.145480477303025,11.674161389457383,Golf Course
81929,Galopprennbahn München Riem,48.145403925138986,11.673827936022102,Racetrack
81929,Wirtshaus zur Marienburg,48.15044929975033,11.645598776647503,German Restaurant
81929,Olympia Reitanlagen,48.14520039643012,11.670377254486084,Stadium
81929,Alte Wiede Fabrik,48.16565312583458,11.647771314434893,Wine Shop
81929,Hundewiese Rennbahnstrasse,48.147060358850105,11.658413480971271,Dog Run
81929,Flohmarkt Daglfing,48.145323928614815,11.665057881662634,Flea Market
81929,Neue Theaterfabrik,48.173695,11.647326,Concert Hall
81929,FRÖBEL-Haus für Kinder Schimmelweg,48.14378562620265,11.652253568172455,Child Care Service
